{"version": 0.6, "generator": "Overpass API 0.7.59.4 36d058c8", "osm3s": {"timestamp_osm_base": "2023-03-26T19:38:39Z", "copyright": "The data included in this document is from www.openstreetmap.org. The data is made available under ODbL."}, "elements": [{"type": "node", "id": 275547479, "lat": 32.831488, "lon": 35.0567115, "tags": {"accuracy": "minutes", "gns_ref": "-781097", "name": "\u05e7\u05e8\u05d9\u05d9\u05ea \u05d7\u05d9\u05d9\u05dd \u05de\u05e2\u05e8\u05d1\u05d9\u05ea", "name:en": "Qiryat Haim West", "name:fr": "Qiryat Haim Ouest", "name:he": "\u05e7\u05e8\u05d9\u05d9\u05ea \u05d7\u05d9\u05d9\u05dd \u05de\u05e2\u05e8\u05d1\u05d9\u05ea", "name:ru": "\u041a\u0438\u0440\u044c\u044f\u0442-\u0425\u0430\u0438\u043c \u0437\u0430\u043f\u0430\u0434\u043d\u044b\u0439", "place": "suburb"}}, {"type": "node", "id": 278470458, "lat": 32.8343797, "lon": 35.0677767, "tags": {"accuracy": "minutes", "gns_ref": "-781109", "name": "\u05e7\u05e8\u05d9\u05d9\u05ea \u05e9\u05de\u05d5\u05d0\u05dc", "name:en": "Qiryat Shemuel", "name:fr": "Kiryat Shmuel", "name:he": "\u05e7\u05e8\u05d9\u05d9\u05ea \u05e9\u05de\u05d5\u05d0\u05dc", "name:ru": "\u041a\u0438\u0440\u044c\u044f\u0442-\u0428\u043c\u0443\u044d\u043b\u044c", "place": "suburb", "source": "GEOnet Names Server (gns)", "wikidata": "Q185687"}}, {"type": "node", "id": 278471470, "lat": 32.8166793, "lon": 34.9579895, "tags": {"accuracy": "minutes", "gns_ref": "-781354", "name": "\u05e9\u05e2\u05e8 \u05d4\u05e2\u05dc\u05d9\u05d4", "name:en": "Sha'ar Ha'aliya", "name:en1": "Shaar Haaliyah", "name:fr": "Shaar Aliya", "name:he": "\u05e9\u05e2\u05e8 \u05d4\u05e2\u05dc\u05d9\u05d4", "name:ur": "\u0634\u0639\u0631 \u06c1\u0639\u0644\u06cc\u06c1", "place": "suburb", "source": "GEOnet Names Server (gns)"}}, {"type": "node", "id": 278473181, "lat": 32.7941448, "lon": 34.9961037, "tags": {"accuracy": "minutes", "gns_ref": "-781671", "name": "\u05d5\u05e8\u05d3\u05d9\u05d4", "name:ar": "\u06a4\u0627\u0631\u062f\u064a\u0627\u0647", "name:en": "Vardiya", "name:en1": "El Wardiye", "name:en2": "Wardiya", "name:fr": "Vardia", "name:he": "\u05d5\u05e8\u05d3\u05d9\u05d4", "name:ru": "\u0412\u0430\u0440\u0434\u0438\u044f", "place": "suburb", "source": "GEOnet Names Server (gns)"}}, {"type": "node", "id": 278473603, "lat": 32.8329859, "lon": 34.9793306, "tags": {"accuracy": "minutes", "alt_name:cs": "Dcera Vln", "gns_ref": "-779346", "name": "\u05d1\u05ea \u05d2\u05dc\u05d9\u05dd", "name:cs": "Bat Galim", "name:en": "Bat Galim", "name:fr": "Bat Galim", "name:he": "\u05d1\u05ea \u05d2\u05dc\u05d9\u05dd", "place": "suburb", "source": "GEOnet Names Server (gns)"}}, {"type": "node", "id": 278474019, "lat": 32.8048554, "lon": 34.9723472, "tags": {"accuracy": "minutes", "gns_ref": "-779643", "name": "\u0627\u0644\u0643\u0628\u0627\u0628\u064a\u0631", "name:ar": "\u0627\u0644\u0643\u0628\u0627\u0628\u064a\u0631", "name:en": "El Kababir", "name:en1": "Al Kababir", "name:en2": "Kababir", "name:fr": "Kababir", "name:he": "\u05db\u05d1\u05d0\u05d1\u05d9\u05e8", "name:he2": "\u05db\u05d1\u05d1\u05d9\u05e8", "name:hi": "\u0915\u092c\u093e\u092c\u0940\u0930", "name:pa": "\u0a15\u0a2c\u0a3e\u0a2c\u0a40\u0a30", "name:pnb": "\u06a9\u0628\u0627\u0628\u06cc\u0631", "name:ur": "\u06a9\u0628\u0627\u0628\u06cc\u0631", "place": "suburb", "source": "GEOnet Names Server (gns)", "wikidata": "Q2897547", "wikipedia": "ar:\u0627\u0644\u0643\u0628\u0627\u0628\u064a\u0631", "wikipedia:ur": "\u06a9\u0628\u0627\u0628\u06cc\u0631"}}, {"type": "node", "id": 278476760, "lat": 32.7873956, "lon": 35.0189029, "tags": {"gns_ref": "-780882", "name": "\u05e0\u05d5\u05d5\u05d4 \u05e9\u05d0\u05e0\u05df", "name:ar": "\u0646\u0641\u064a \u0634\u0623\u0646\u0627\u0646", "name:en": "Neve Shaanan", "name:fr": "Nave Sha'anan", "name:he": "\u05e0\u05d5\u05d5\u05d4 \u05e9\u05d0\u05e0\u05df", "place": "suburb", "source": "GEOnet Names Server (gns)", "wikidata": "Q2919842"}}, {"type": "node", "id": 278476872, "lat": 32.8000209, "lon": 34.9833705, "tags": {"accuracy": "minutes", "gns_ref": "-779987", "name": "\u05de\u05e8\u05db\u05d6 \u05d4\u05db\u05e8\u05de\u05dc", "name:en": "Merkaz HaKarmel", "name:en1": "Merkaz HaKarmel", "name:en2": "Center Carmel", "name:fr": "Centre Carmel", "name:he": "\u05de\u05e8\u05db\u05d6 \u05d4\u05db\u05e8\u05de\u05dc", "name:he1": "\u05de\u05e8\u05db\u05d6 \u05d4\u05db\u05e8\u05de\u05dc", "name:ur": "\u0645\u0631\u06a9\u0632 \u06a9\u0631\u0645\u0644", "place": "suburb", "source": "GEOnet Names Server (gns)"}}, {"type": "node", "id": 278476981, "lat": 32.7877545, "lon": 34.9868664, "tags": {"accuracy": "minutes", "alt_name": "\u05d0\u05d7\u05d5\u05d6\u05d4", "gns_ref": "-779170", "name": "\u05d0\u05d7\u05d5\u05d6\u05ea \u05e9\u05de\u05d5\u05d0\u05dc", "name:en": "Ahuzzat Shemuel", "name:en1": "Ahutzasamuel", "name:en2": "Ahuzat Samuel", "name:en3": "Ahuzat Sir Herbert Samuel", "name:en4": "Ahuzza", "name:en5": "Ahuzzat Sir Herbert Samuel", "name:en6": "Ahuza", "name:fr": "Ahuzat Shmuel", "name:he": "\u05d0\u05d7\u05d5\u05d6\u05ea \u05e9\u05de\u05d5\u05d0\u05dc", "name:he1": "\u05d0\u05d7\u05d5\u05d6\u05d4", "name:ur": "\u0627\u062d\u0648\u0632\u062a \u0634\u0645\u0648\u06cc\u0644\u200e", "place": "suburb", "source": "GEOnet Names Server (gns)"}}, {"type": "node", "id": 278477355, "lat": 32.7793413, "lon": 35.0065863, "tags": {"accuracy": "minutes", "gns_ref": "-781182", "name": "\u05e8\u05de\u05d5\u05ea \u05e8\u05de\u05d6", "name:ar": "\u0631\u0627\u0645\u0648\u062a \u0631\u0645\u0632", "name:en": "Ramot Remez", "name:en1": "Qiryat Remez", "name:fr": "Ramot Remez", "name:he": "\u05e8\u05de\u05d5\u05ea \u05e8\u05de\u05d6", "name:ur": "\u0631\u0627\u0645\u0648\u062a \u0631\u0645\u0632", "place": "suburb", "source": "GEOnet Names Server (gns)"}}, {"type": "node", "id": 278478769, "lat": 32.8112799, "lon": 34.9971127, "tags": {"accuracy": "minutes", "gns_ref": "-779956", "name": "\u05d4\u05d3\u05e8 \u05d4\u05db\u05e8\u05de\u05dc", "name:en": "Hadar HaKarmel", "name:en1": "Hadar HaCarmel", "name:fr": "Hadar HaCarmel", "name:he": "\u05d4\u05d3\u05e8 \u05d4\u05db\u05e8\u05de\u05dc", "place": "suburb", "source": "GEOnet Names Server (gns)", "wikidata": "Q2630079"}}, {"type": "node", "id": 429882373, "lat": 32.8217023, "lon": 34.991176, "tags": {"name": "\u05d4\u05de\u05d5\u05e9\u05d1\u05d4 \u05d4\u05d2\u05e8\u05de\u05e0\u05d9\u05ea", "name:en": "German Colony", "name:fr": "Colonie allemande", "name:he": "\u05d4\u05de\u05d5\u05e9\u05d1\u05d4 \u05d4\u05d2\u05e8\u05de\u05e0\u05d9\u05ea", "place": "suburb", "wikidata": "Q2413425"}}, {"type": "node", "id": 469326826, "lat": 32.7680988, "lon": 35.0115053, "tags": {"name": "\u05e1\u05d1\u05d9\u05d5\u05e0\u05d9 \u05d4\u05db\u05e8\u05de\u05dc", "name:en": "Savionei HaCarmel", "name:en2": "Savionei Denya", "name:fr": "Savyoni HaCarmel", "name:he": "\u05e1\u05d1\u05d9\u05d5\u05e0\u05d9 \u05d4\u05db\u05e8\u05de\u05dc", "place": "suburb"}}, {"type": "node", "id": 472552004, "lat": 32.7669966, "lon": 34.9955339, "tags": {"alt_name": "\u05d3\u05e0\u05d9\u05d4", "alt_name:en": "Denya", "alt_name:he": "\u05d3\u05e0\u05d9\u05d4", "name": "\u05d4\u05d5\u05d3 \u05d4\u05db\u05e8\u05de\u05dc", "name:en": "Hod Hacarmel", "name:fr": "Hod Hacarmel", "name:he": "\u05d4\u05d5\u05d3 \u05d4\u05db\u05e8\u05de\u05dc", "place": "suburb"}}, {"type": "node", "id": 500190940, "lat": 32.7846358, "lon": 34.9956066, "tags": {"name": "\u05e8\u05d5\u05de\u05de\u05d4 \u05d4\u05d7\u05d3\u05e9\u05d4", "name:en": "Romema HaHadasha", "name:en1": "New Romema", "name:fr": "New Romema", "name:he": "\u05e8\u05d5\u05de\u05de\u05d4 \u05d4\u05d7\u05d3\u05e9\u05d4", "place": "suburb"}}, {"type": "node", "id": 500190941, "lat": 32.7887607, "lon": 34.9969399, "tags": {"name": "\u05e8\u05d5\u05de\u05de\u05d4 \u05d4\u05d9\u05e9\u05e0\u05d4", "name:en": "Romema HaYeshana", "name:fr": "Romema HaYeshana", "name:he": "\u05e8\u05d5\u05de\u05de\u05d4 \u05d4\u05d9\u05e9\u05e0\u05d4", "place": "suburb"}}, {"type": "node", "id": 500283904, "lat": 32.8097467, "lon": 34.9735031, "tags": {"alt_name:en": "Carmel Maaravi", "alt_name:ur": "\u06a9\u0631\u0645\u0644 \u0645\u0639\u0631\u0648\u06cc (\u0645\u063a\u0631\u0628\u06cc \u06a9\u0631\u0645\u0644); \u06a9\u0631\u0645\u0644 \u0645\u0639\u0631\u0648\u06cc", "name": "\u05db\u05e8\u05de\u05dc \u05de\u05e2\u05e8\u05d1\u05d9", "name:en": "Western Carmel", "name:fr": "Carmel Maaravi", "name:he": "\u05db\u05e8\u05de\u05dc \u05de\u05e2\u05e8\u05d1\u05d9", "name:ur": "\u0645\u063a\u0631\u0628\u06cc \u06a9\u0631\u0645\u0644", "place": "suburb"}}, {"type": "node", "id": 500869524, "lat": 32.7975307, "lon": 34.9748257, "tags": {"name": "\u05db\u05e8\u05de\u05dc\u05d9\u05d4", "name:en": "Carmelia", "name:fr": "Carmelia", "name:he": "\u05db\u05e8\u05de\u05dc\u05d9\u05d4", "name:ur": "\u06a9\u0631\u0645\u0644\u06cc\u06c1", "place": "suburb"}}, {"type": "node", "id": 508301487, "lat": 32.8085147, "lon": 34.961383, "tags": {"name": "\u05e0\u05d5\u05d5\u05d4 \u05d3\u05d5\u05d3", "name:en": "Neve David", "name:en2": "Newe David", "name:fr": "Neve David", "name:he": "\u05e0\u05d5\u05d5\u05d4 \u05d3\u05d5\u05d3", "name:ur": "\u0646\u0648\u06cc\u06c1 \u062f\u0627\u0624\u062f", "place": "suburb"}}, {"type": "node", "id": 523913123, "lat": 32.785196, "lon": 35.0084153, "tags": {"name": "\u05e8\u05de\u05ea \u05d7\u05df", "name:en": "Ramat Hen", "name:fr": "Ramat Hen", "name:he": "\u05e8\u05de\u05ea \u05d7\u05df", "name:ur": "\u0631\u0645\u062a \u062d\u06cc\u0646", "place": "suburb"}}, {"type": "node", "id": 523913125, "lat": 32.7861891, "lon": 35.0045576, "tags": {"name": "\u05e8\u05de\u05ea \u05e1\u05e4\u05d9\u05e8", "name:en": "Ramat Sapir", "name:fr": "Ramat Sapir", "name:he": "\u05e8\u05de\u05ea \u05e1\u05e4\u05d9\u05e8", "name:ur": "\u0631\u0645\u062a \u0633\u067e\u06cc\u0631", "place": "suburb"}}, {"type": "node", "id": 540930693, "lat": 32.776428, "lon": 35.0122779, "tags": {"name": "\u05e8\u05de\u05ea \u05d0\u05dc\u05d5\u05df", "name:en": "Ramat Alon", "name:fr": "Ramat Alon", "name:he": "\u05e8\u05de\u05ea \u05d0\u05dc\u05d5\u05df", "name:ur": "\u0631\u0645\u062a \u0627\u0644\u0648\u0646", "place": "suburb"}}, {"type": "node", "id": 1013316379, "lat": 32.7791064, "lon": 34.9835995, "tags": {"name": "\u05e8\u05de\u05ea \u05d0\u05e9\u05db\u05d5\u05dc", "name:en": "Ramat Eshkol", "name:fr": "Ramat Eshkol", "name:he": "\u05e8\u05de\u05ea \u05d0\u05e9\u05db\u05d5\u05dc", "place": "suburb"}}, {"type": "node", "id": 1013318983, "lat": 32.7765356, "lon": 35.0022987, "tags": {"name": "\u05e8\u05de\u05ea \u05d0\u05dc\u05de\u05d5\u05d2\u05d9", "name:en": "Ramat Almogi", "name:en1": "Ramat Almogy", "name:fr": "Ramat Almogi", "name:he": "\u05e8\u05de\u05ea \u05d0\u05dc\u05de\u05d5\u05d2\u05d9", "place": "suburb"}}, {"type": "node", "id": 1013318988, "lat": 32.7737914, "lon": 35.0020068, "tags": {"name": "\u05e8\u05de\u05ea \u05d2\u05d5\u05dc\u05d3\u05d4", "name:en": "Ramat Golda", "name:fr": "Ramat Golda", "name:he": "\u05e8\u05de\u05ea \u05d2\u05d5\u05dc\u05d3\u05d4", "place": "suburb"}}, {"type": "node", "id": 1013318989, "lat": 32.7759394, "lon": 34.9927209, "tags": {"name": "\u05e8\u05de\u05ea \u05d1\u05d2\u05d9\u05df", "name:en": "Ramat Begin", "name:fr": "Ramat Begin", "name:he": "\u05e8\u05de\u05ea \u05d1\u05d2\u05d9\u05df", "place": "suburb"}}, {"type": "node", "id": 1098028291, "lat": 32.8243456, "lon": 35.0754162}, {"type": "node", "id": 1098034257, "lat": 32.839848, "lon": 35.0563698}, {"type": "node", "id": 1098034262, "lat": 32.8418517, "lon": 35.0762436}, {"type": "node", "id": 1456690781, "lat": 32.8202339, "lon": 34.9623765, "tags": {"name": "\u05e7\u05e8\u05d9\u05d9\u05ea \u05e9\u05e4\u05e8\u05d9\u05e0\u05e6\u05e7", "name:en": "Kiriyat Sprinzak", "name:fr": "Kiryat Shprintsak", "name:he": "\u05e7\u05e8\u05d9\u05d9\u05ea \u05e9\u05e4\u05e8\u05d9\u05e0\u05e6\u05e7", "name:ur": "\u0642\u0631\u06cc\u062a \u0633\u067e\u0631\u06cc\u0646\u0635\u0642", "place": "suburb"}}, {"type": "node", "id": 1457521573, "lat": 32.8265171, "lon": 34.962335, "tags": {"name": "\u05e2\u05d9\u05df \u05d4\u05d9\u05dd", "name:en": "Ein Ha'Yam", "name:fr": "Ein HaYam", "name:he": "\u05e2\u05d9\u05df \u05d4\u05d9\u05dd", "name:ur": "\u0639\u06cc\u0646 \u06c1\u06cc\u0627\u0645", "place": "suburb"}}, {"type": "node", "id": 1457663994, "lat": 32.8229799, "lon": 34.9700745, "tags": {"name": "\u05e8\u05de\u05ea \u05e9\u05d0\u05d5\u05dc", "name:en": "Ramat Shaul", "name:fr": "Ramat Shaul", "name:he": "\u05e8\u05de\u05ea \u05e9\u05d0\u05d5\u05dc", "name:ur": "\u0631\u0645\u062a \u0634\u0627\u0624\u0644", "place": "suburb"}}, {"type": "node", "id": 1458560746, "lat": 32.8143156, "lon": 34.977787, "tags": {"name": "\u05e8\u05de\u05ea \u05d4\u05ea\u05e9\u05d1\u05d9", "name:en": "Ramat Hatishbi", "name:fr": "Ramat HaTishbi", "name:he": "\u05e8\u05de\u05ea \u05d4\u05ea\u05e9\u05d1\u05d9", "name:ur": "\u0631\u0645\u062a \u06c1\u062a\u0634\u0628\u06cc", "place": "suburb", "wikidata": "Q7289098", "wikipedia": "en:Ramat HaTishbi", "wikipedia:cs": "Ramat ha-Ti\u0161bi"}}, {"type": "node", "id": 1458564069, "lat": 32.8177879, "lon": 34.9782812, "tags": {"alt_name:ur": "\u06a9\u0631\u0645\u0644 \u0635\u0627\u0631\u0641\u062a\u06cc", "name": "\u05db\u05e8\u05de\u05dc \u05e6\u05e8\u05e4\u05ea\u05d9", "name:en": "Carmel Zarphati (French Carmel)", "name:fr": "French Carmel", "name:he": "\u05db\u05e8\u05de\u05dc \u05e6\u05e8\u05e4\u05ea\u05d9", "name:ur": "\u0641\u0631\u0627\u0646\u0633\u06cc\u0633\u06cc \u06a9\u0631\u0645\u0644", "place": "suburb", "wikidata": "Q2897599"}}, {"type": "node", "id": 1458722110, "lat": 32.8264639, "lon": 34.9787185, "tags": {"name": "\u05e7\u05e8\u05d9\u05d9\u05ea \u05d0\u05dc\u05d9\u05e2\u05d6\u05e8", "name:en": "Kiriyat Elieser", "name:fr": "Kiryat Eliezer", "name:he": "\u05e7\u05e8\u05d9\u05d9\u05ea \u05d0\u05dc\u05d9\u05e2\u05d6\u05e8", "place": "suburb"}}, {"type": "node", "id": 1459709671, "lat": 32.8246062, "lon": 34.9866147, "tags": {"name": "\u05e7\u05e8\u05d9\u05d9\u05ea \u05d0\u05dc\u05d9\u05d4\u05d5", "name:en": "Kiryat Eliyahu", "name:fr": "Kiryat Eliyahu", "name:he": "\u05e7\u05e8\u05d9\u05d9\u05ea \u05d0\u05dc\u05d9\u05d4\u05d5", "place": "suburb"}}, {"type": "node", "id": 1460315852, "lat": 32.828052, "lon": 34.9881388, "tags": {"name": "\u05ea\u05d7\u05e0\u05ea \u05d4\u05db\u05e8\u05de\u05dc", "name:en": "Carmel Station", "name:en2": "Haifa Al Atika", "name:fr": "Gare de Carmel", "name:he": "\u05ea\u05d7\u05e0\u05ea \u05d4\u05db\u05e8\u05de\u05dc", "name:he2": "\u05d7\u05d9\u05e4\u05d4 \u05d0\u05dc-\u05e2\u05ea\u05d9\u05e7\u05d4", "place": "suburb"}}, {"type": "node", "id": 1460988681, "lat": 32.8162137, "lon": 35.0013226, "tags": {"alt_name:en": "kiriat hamamashla yaish rabin", "name": "\u05e7\u05e8\u05d9\u05d9\u05ea \u05d4\u05de\u05de\u05e9\u05dc\u05d4 \u05e2\"\u05e9 \u05e8\u05d1\u05d9\u05df", "name:en": "Rabin Government Complex", "name:fr": "Campus gouvernemental de Rabin", "name:he": "\u05e7\u05e8\u05d9\u05d9\u05ea \u05d4\u05de\u05de\u05e9\u05dc\u05d4 \u05e2\"\u05e9 \u05e8\u05d1\u05d9\u05df", "name:ro": "Complexul rabinului guvernului", "place": "suburb"}}, {"type": "node", "id": 1460991079, "lat": 32.8203047, "lon": 34.9968412, "tags": {"name": "\u05e2\u05d9\u05e8 \u05ea\u05d7\u05ea\u05d9\u05ea", "name:en": "Downtown", "name:en1": "Lower City", "name:fr": "Centre ville", "name:he": "\u05e2\u05d9\u05e8 \u05ea\u05d7\u05ea\u05d9\u05ea", "name:ro": "Centru", "place": "suburb"}}, {"type": "node", "id": 1462339637, "lat": 32.8064992, "lon": 35.0175749, "tags": {"name": "\u05d0.\u05ea. \u05d7\u05d5\u05e3 \u05e9\u05de\u05df", "name:en": "Schemen beach Industrial", "name:fr": "Schemen beach Industrial", "name:he": "\u05d0.\u05ea. \u05d7\u05d5\u05e3 \u05e9\u05de\u05df", "place": "suburb"}}, {"type": "node", "id": 1462973503, "lat": 32.7914864, "lon": 35.0213229, "tags": {"name": "\u05e0\u05d5\u05d5\u05d4 \u05d9\u05d5\u05e1\u05e3", "name:en": "Neve Yosef", "name:fr": "Neve Yosef", "name:he": "\u05e0\u05d5\u05d5\u05d4 \u05d9\u05d5\u05e1\u05e3", "place": "suburb"}}, {"type": "node", "id": 1462973770, "lat": 32.7961724, "lon": 35.0188535, "tags": {"name": "\u05e0\u05d5\u05d5\u05d4 \u05e0\u05d7\u05dc", "name:en": "Neve Nahal", "name:fr": "Neve Nahal", "name:he": "\u05e0\u05d5\u05d5\u05d4 \u05e0\u05d7\u05dc", "note": "\u05e0\u05d5\u05d5\u05d4 \u05e0\u05d7\u05dc \u05d4\u05d9\u05d0 \u05e9\u05db\u05d5\u05e0\u05d4 \u05d1\u05de\u05d6\u05e8\u05d7 \u05d7\u05d9\u05e4\u05d4. \u05d4\u05d9\u05d0 \u05d7\u05dc\u05e7\u05d4 \u05d4\u05ea\u05d7\u05ea\u05d5\u05df \u05e9\u05dc \u05de\u05e0\u05d4\u05dc\u05ea \u05e0\u05d5\u05d5\u05d4 \u05e9\u05d0\u05e0\u05df. \u05d1\u05de\u05e8\u05db\u05d6 \u05d4\u05e9\u05db\u05d5\u05e0\u05d4 \u05e8\u05d7\u05d5\u05d1 \u05d7\u05d8\u05d9\u05d1\u05ea \u05db\u05e8\u05de\u05dc\u05d9, \u05d5\u05dc\u05de\u05e8\u05d2\u05dc\u05d5\u05ea\u05d9\u05d4 \u05d6\u05d5\u05e8\u05dd \u05e0\u05d7\u05dc \u05e1\u05e2\u05d3\u05d9\u05d4.", "place": "suburb"}}, {"type": "node", "id": 1463013605, "lat": 32.7990152, "lon": 35.0125146, "tags": {"name": "\u05ea\u05dc \u05e2\u05de\u05dc", "name:en": "Tel Amal", "name:fr": "Tel Amal", "name:he": "\u05ea\u05dc \u05e2\u05de\u05dc", "place": "suburb"}}, {"type": "node", "id": 1469038938, "lat": 32.8167375, "lon": 34.9944597, "tags": {"name": "\u0648\u0627\u062f\u064a \u0627\u0644\u0646\u0633\u0646\u0627\u0633\u200e", "name:ar": "\u0648\u0627\u062f\u064a \u0627\u0644\u0646\u0633\u0646\u0627\u0633\u200e", "name:en": "Wadi Nisnas", "name:fr": "Wadi Nisnas", "name:he": "\u05d5\u05d0\u05d3\u05d9 \u05e0\u05d9\u05e1\u05e0\u05d0\u05e1", "place": "suburb"}}, {"type": "node", "id": 1470676387, "lat": 32.7938318, "lon": 35.0090933, "tags": {"name": "\u05d9\u05d6\u05e8\u05e2\u05d0\u05dc\u05d9\u05d4", "name:ar": "\u064a\u0632\u0631\u0639\u064a\u0644\u064a\u0629", "name:en": "Yizraeliya", "name:fr": "Jezreelia", "name:he": "\u05d9\u05d6\u05e8\u05e2\u05d0\u05dc\u05d9\u05d4", "place": "suburb"}}, {"type": "node", "id": 1471917602, "lat": 32.783021, "lon": 35.014856, "tags": {"alt_name:he": "\u05de\u05e8\u05db\u05d6 \u05d6\u05d9\u05d5; \u05db\u05d9\u05db\u05e8 \u05d6\u05d9\u05d5;\u05db\u05db\u05e8 \u05d6\u05d9\u05d5", "name": "\u05d6\u05d9\u05d5", "name:en": "Ziv", "name:fr": "Ziv", "name:he": "\u05d6\u05d9\u05d5", "place": "suburb"}}, {"type": "node", "id": 1482089827, "lat": 32.7811288, "lon": 34.993563, "tags": {"name": "\u05d2\u05d1\u05e2\u05ea \u05d3\u05d0\u05d5\u05e0\u05e1", "name:en": "Givat Downes", "name:fr": "Givat Downes", "name:he": "\u05d2\u05d1\u05e2\u05ea \u05d3\u05d0\u05d5\u05e0\u05e1", "place": "suburb"}}, {"type": "node", "id": 1491220263, "lat": 32.8045935, "lon": 35.007872, "tags": {"name": "\u05e2\u05d9\u05e8 \u05ea\u05d7\u05ea\u05d9\u05ea \u05de\u05d6\u05e8\u05d7", "name:en": "Downtown East", "name:fr": "Centre-ville Est", "name:he": "\u05e2\u05d9\u05e8 \u05ea\u05d7\u05ea\u05d9\u05ea \u05de\u05d6\u05e8\u05d7", "place": "suburb"}}, {"type": "node", "id": 1494071313, "lat": 32.8010359, "lon": 35.0077812, "tags": {"name": "\u0627\u0644\u062d\u0644\u064a\u0635\u0629", "name:ar": "\u0627\u0644\u062d\u0644\u064a\u0635\u0629", "name:en": "Halisa", "name:fr": "Halisa", "name:he": "\u05d7\u05dc\u05d9\u05e1\u05d4", "place": "suburb"}}, {"type": "node", "id": 2016262754, "lat": 32.8236835, "lon": 35.0582461}, {"type": "node", "id": 2087425140, "lat": 32.7906253, "lon": 34.9842766, "tags": {"name": "\u05e9\u05de\u05d1\u05d5\u05e8", "name:ar": "\u0634\u0645\u0628\u0648\u0631", "name:en": "Shambur", "name:fr": "Shambur", "name:he": "\u05e9\u05de\u05d1\u05d5\u05e8", "place": "suburb"}}, {"type": "node", "id": 2530390981, "lat": 32.8441362, "lon": 35.0714784}, {"type": "node", "id": 3116154972, "lat": 32.8233883, "lon": 35.0708336, "tags": {"name": "\u05e7\u05e8\u05d9\u05d9\u05ea \u05d7\u05d9\u05d9\u05dd \u05de\u05d6\u05e8\u05d7\u05d9\u05ea", "name:en": "Qiryat Haim East", "name:fr": "Qiryat Haim Est", "name:he": "\u05e7\u05e8\u05d9\u05d9\u05ea \u05d7\u05d9\u05d9\u05dd \u05de\u05d6\u05e8\u05d7\u05d9\u05ea", "name:ru": "\u041a\u0438\u0440\u044c\u044f\u0442-\u0425\u0430\u0438\u043c \u0432\u043e\u0441\u0442\u043e\u0447\u043d\u044b\u0439", "place": "suburb"}}, {"type": "node", "id": 3116262583, "lat": 32.7887218, "lon": 35.0344054, "tags": {"name": "\u05e6\u05f3\u05e7 \u05e4\u05d5\u05e1\u05d8", "name:en": "Check Post", "name:fr": "Check Post", "name:he": "\u05e6\u05f3\u05e7 \u05e4\u05d5\u05e1\u05d8", "name:ru": "\u0427\u0435\u043a \u043f\u043e\u0441\u0442", "place": "suburb"}}, {"type": "node", "id": 3180626187, "lat": 32.7833183, "lon": 34.969086, "tags": {"name": "\u05e0\u05d0\u05d5\u05ea \u05e4\u05e8\u05e1", "name:en": "Neot Peres", "name:fr": "Neot Peres", "name:he": "\u05e0\u05d0\u05d5\u05ea \u05e4\u05e8\u05e1", "name:ru": "\u041d\u0435\u043e\u0442 \u041f\u0435\u0440\u0435\u0441", "name:ur": "\u0646\u0627\u0624\u062a \u067e\u0631\u0633", "place": "suburb", "wikidata": "Q18388129"}}, {"type": "node", "id": 3206316504, "lat": 32.8140638, "lon": 35.073587}, {"type": "node", "id": 3206801369, "lat": 32.832399, "lon": 35.0508533}, {"type": "node", "id": 3206801370, "lat": 32.8210706, "lon": 35.0620903}, {"type": "node", "id": 3206801371, "lat": 32.8186927, "lon": 35.0623505}, {"type": "node", "id": 3206801372, "lat": 32.8158038, "lon": 35.0702435}, {"type": "node", "id": 3206801375, "lat": 32.8279716, "lon": 35.0581224}, {"type": "node", "id": 3206801377, "lat": 32.8263318, "lon": 35.0597648}, {"type": "node", "id": 3206801378, "lat": 32.8194853, "lon": 35.0617975}, {"type": "node", "id": 3448149427, "lat": 32.8287233, "lon": 35.0733837}, {"type": "node", "id": 4610356280, "lat": 32.839534, "lon": 35.0677337}, {"type": "node", "id": 4610356281, "lat": 32.8444511, "lon": 35.0708216}, {"type": "node", "id": 5292773884, "lat": 32.8389542, "lon": 35.0576995}, {"type": "node", "id": 6814469359, "lat": 32.834976, "lon": 35.0653678}, {"type": "node", "id": 6814469360, "lat": 32.8345259, "lon": 35.064621}, {"type": "node", "id": 6814490844, "lat": 32.8231708, "lon": 35.0780427}, {"type": "node", "id": 6814490850, "lat": 32.8176279, "lon": 35.0778011}, {"type": "node", "id": 6814490852, "lat": 32.8173767, "lon": 35.0774269}, {"type": "node", "id": 6814572546, "lat": 32.8233852, "lon": 35.0771725}, {"type": "node", "id": 6814572607, "lat": 32.8318463, "lon": 35.0692875}, {"type": "node", "id": 6814572609, "lat": 32.8312421, "lon": 35.0704712}, {"type": "node", "id": 6814572610, "lat": 32.8314936, "lon": 35.0716813}, {"type": "node", "id": 6814572613, "lat": 32.8287381, "lon": 35.072473}, {"type": "node", "id": 6814572615, "lat": 32.8289143, "lon": 35.0733265}, {"type": "node", "id": 6814572619, "lat": 32.8259092, "lon": 35.074226}, {"type": "node", "id": 6814572640, "lat": 32.819483, "lon": 35.0793152}, {"type": "node", "id": 6814572647, "lat": 32.8183552, "lon": 35.0786534}, {"type": "node", "id": 6814572753, "lat": 32.8230209, "lon": 35.0797444}, {"type": "node", "id": 7580558910, "lat": 32.8247972, "lon": 35.0749552}, {"type": "node", "id": 7580558911, "lat": 32.8306555, "lon": 35.0719221}, {"type": "node", "id": 7580558912, "lat": 32.8316344, "lon": 35.0697026}, {"type": "node", "id": 7580565278, "lat": 32.8371645, "lon": 35.0664622}, {"type": "node", "id": 7580565279, "lat": 32.8361302, "lon": 35.0659235}, {"type": "node", "id": 7580565280, "lat": 32.8411212, "lon": 35.0686777}, {"type": "node", "id": 7580589250, "lat": 32.8180993, "lon": 35.0783701}, {"type": "node", "id": 7580589251, "lat": 32.8188348, "lon": 35.0790302}, {"type": "node", "id": 7580589252, "lat": 32.8191785, "lon": 35.0792057}, {"type": "node", "id": 7580589253, "lat": 32.8164858, "lon": 35.0763628}, {"type": "node", "id": 9421499061, "lat": 32.8422707, "lon": 35.0752893}, {"type": "node", "id": 9421499081, "lat": 32.8430288, "lon": 35.0736202}, {"type": "node", "id": 9937005255, "lat": 32.8125893, "lon": 34.9627496, "tags": {"name": "\u05e8\u05de\u05ea \u05d4\u05e0\u05e9\u05d9\u05d0", "name:en": "Ramat HaNasi", "name:en1": "Ramat HaNassi", "name:he": "\u05e8\u05de\u05ea \u05d4\u05e0\u05e9\u05d9\u05d0", "name:ur": "\u0631\u0627\u0645\u062a \u06c1\u0646\u0627\u0633\u06cc\u0621", "place": "suburb"}}, {"type": "node", "id": 10108897554, "lat": 32.7969027, "lon": 34.9910203, "tags": {"name": "\u05e0\u05e2\u05de\u05ea", "name:ar": "\u0646\u0639\u0645\u0627\u062a", "name:en": "Na'amat", "name:he": "\u05e0\u05e2\u05de\u05ea", "place": "suburb"}}, {"type": "way", "id": 314635844, "nodes": [6814572753, 6814490844, 6814572546, 1098028291, 7580558910, 6814572619, 3448149427, 6814572615, 6814572613, 7580558911, 6814572610, 6814572609, 7580558912, 6814572607, 1098034262, 9421499061, 9421499081, 2530390981, 4610356281, 7580565280, 4610356280, 7580565278, 7580565279, 6814469359, 6814469360, 5292773884, 1098034257, 3206801369, 3206801375, 3206801377, 2016262754, 3206801370, 3206801378, 3206801371, 3206801372, 3206316504, 7580589253, 6814490852, 6814490850, 7580589250, 6814572647, 7580589251, 7580589252, 6814572640, 6814572753], "tags": {"landuse": "residential", "name": "\u05e7\u05e8\u05d9\u05ea \u05d7\u05d9\u05d9\u05dd", "name:en": "Kiryat Haim", "name:fr": "Kiryat Haim", "name:he": "\u05e7\u05e8\u05d9\u05ea \u05d7\u05d9\u05d9\u05dd", "place": "suburb", "wikidata": "Q2655674"}}]}