{"version": 0.6, "generator": "Overpass API 0.7.59.4 36d058c8", "osm3s": {"timestamp_osm_base": "2023-03-21T16:38:09Z", "copyright": "The data included in this document is from www.openstreetmap.org. The data is made available under ODbL."}, "elements": [{"type": "node", "id": 200667525, "lat": 32.0817852, "lon": 34.8989306}, {"type": "node", "id": 278471178, "lat": 32.080839, "lon": 34.8755594, "tags": {"accuracy": "minutes", "gns_ref": "-780370", "name": "\u05db\u05e4\u05e8 \u05d2\u05e0\u05d9\u05dd \u05d0'", "name:en": "Kfar Ganim Alef", "name:en1": "Kefar Gannim", "name:fr": "Kfar Ganim A", "name:he": "\u05db\u05e4\u05e8 \u05d2\u05e0\u05d9\u05dd \u05d0'", "place": "suburb", "source": "GEOnet Names Server (gns)"}}, {"type": "node", "id": 278471353, "lat": 32.0878696, "lon": 34.8945415, "tags": {"accuracy": "minutes", "gns_ref": "-779683", "name": "\u05e2\u05d9\u05df \u05d2\u05e0\u05d9\u05dd", "name:ar": "\u0639\u064a\u0646 \u062c\u0627\u0646\u064a\u0645", "name:en": "Ein Ganim", "name:en1": "`En Gannim", "name:fr": "Ein Ganim", "name:he": "\u05e2\u05d9\u05df \u05d2\u05e0\u05d9\u05dd", "place": "suburb", "source": "GEOnet Names Server (gns)", "wikidata": "Q5349575"}}, {"type": "node", "id": 278476398, "lat": 32.0804406, "lon": 34.9172973, "tags": {"accuracy": "minutes", "gns_ref": "-781411", "name": "\u05e9\u05db\u05d5\u05e0\u05ea \u05d1\u05dc\u05d9\u05e0\u05e1\u05d5\u05df", "name:ar": "\u0634\u064a\u0643\u0648\u0646\u0627\u062a \u0628\u0644\u064a\u0646\u0633\u0648\u0646", "name:en": "Shekhunat Belinson", "name:en1": "Beilinson", "name:en2": "Shekhunat Beilinson", "name:fr": "Beilinson", "name:he": "\u05e9\u05db\u05d5\u05e0\u05ea \u05d1\u05dc\u05d9\u05e0\u05e1\u05d5\u05df", "place": "suburb", "source": "GEOnet Names Server (gns)"}}, {"type": "node", "id": 278478375, "lat": 32.0922084, "lon": 34.8502643, "tags": {"accuracy": "minutes", "gns_ref": "-781087", "name": "\u05e7\u05e8\u05d9\u05ea \u05d0\u05e8\u05d9\u05d4", "name:en": "Qiryat Arye", "name:en1": "Kiriat Arieh", "name:fr": "Kiryat Arieh", "name:he": "\u05e7\u05e8\u05d9\u05ea \u05d0\u05e8\u05d9\u05d4", "place": "suburb", "source": "GEOnet Names Server (gns)"}}, {"type": "node", "id": 298084902, "lat": 32.0716174, "lon": 34.9094318}, {"type": "node", "id": 529899122, "lat": 32.0717145, "lon": 34.9093988}, {"type": "node", "id": 529900060, "lat": 32.0737617, "lon": 34.9102329}, {"type": "node", "id": 529902518, "lat": 32.0715523, "lon": 34.9193622}, {"type": "node", "id": 530259823, "lat": 32.0946397, "lon": 34.8992277, "tags": {"name": "\u05db\u05e4\u05e8 \u05d0\u05d1\u05e8\u05d4\u05dd", "name:ar": "\u0643\u0641\u0627\u0631 \u0623\u0641\u0631\u0627\u0647\u0627\u0645", "name:en": "Kfar Avraham", "name:fr": "Kfar Avraham", "name:he": "\u05db\u05e4\u05e8 \u05d0\u05d1\u05e8\u05d4\u05dd", "place": "suburb", "wikidata": "Q12408529"}}, {"type": "node", "id": 530260381, "lat": 32.0823057, "lon": 34.8936802, "tags": {"name": "\u05de\u05d7\u05e0\u05d4 \u05d9\u05d4\u05d5\u05d3\u05d4", "name:en": "Mahane Yehuda", "name:fr": "Mahan\u00e9 Yehuda", "name:he": "\u05de\u05d7\u05e0\u05d4 \u05d9\u05d4\u05d5\u05d3\u05d4", "place": "suburb"}}, {"type": "node", "id": 530260419, "lat": 32.0759518, "lon": 34.8998237, "tags": {"name": "\u05e9\u05e2\u05e8\u05d9\u05d4", "name:ar": "\u0634\u0639\u0631\u064a\u0627", "name:en": "Shaariya", "name:fr": "Shaariya", "name:he": "\u05e9\u05e2\u05e8\u05d9\u05d4", "place": "suburb"}}, {"type": "node", "id": 530260602, "lat": 32.0788609, "lon": 34.8660064, "tags": {"name": "\u05e0\u05d5\u05d5\u05d4 \u05e2\u05d5\u05d6", "name:ar": "\u0646\u0641\u0629 \u0639\u0648\u0632", "name:en": "Neve Oz", "name:fr": "Neve Oz", "name:he": "\u05e0\u05d5\u05d5\u05d4 \u05e2\u05d5\u05d6", "place": "suburb"}}, {"type": "node", "id": 530260720, "lat": 32.1030047, "lon": 34.8734938, "tags": {"name": "\u05d4\u05d3\u05e8 \u05d4\u05de\u05d5\u05e9\u05d1\u05d5\u05ea", "name:ar": "\u0647\u062f\u0627\u0631 \u0647\u0645\u0648\u0634\u0627\u0641\u0648\u062a", "name:en": "Hadar HaMoshavot", "name:fr": "Hadar Hamoshavot", "name:he": "\u05d4\u05d3\u05e8 \u05d4\u05de\u05d5\u05e9\u05d1\u05d5\u05ea", "name:he1": "\u05d4\u05d3\u05e8 \u05d4\u05de\u05d5\u05e9\u05d1\u05d5\u05ea", "place": "suburb"}}, {"type": "node", "id": 530261222, "lat": 32.0890601, "lon": 34.90498, "tags": {"name": "\u05e7\u05e8\u05d9\u05d9\u05ea \u05d0\u05dc\u05d5\u05df", "name:ar": "\u0643\u0631\u064a\u0627\u062a \u0623\u0644\u0648\u0646", "name:en": "Kiryat Alon", "name:fr": "Kiryat Alon", "name:he": "\u05e7\u05e8\u05d9\u05d9\u05ea \u05d0\u05dc\u05d5\u05df", "place": "suburb"}}, {"type": "node", "id": 530261225, "lat": 32.0924596, "lon": 34.9042011, "tags": {"name": "\u05d9\u05d5\u05e1\u05e4\u05d8\u05dc", "name:ar": "\u064a\u0648\u0633\u0641\u0637\u0627\u0644", "name:en": "Yoseftal", "name:fr": "Yoseftal", "name:he": "\u05d9\u05d5\u05e1\u05e4\u05d8\u05dc", "place": "suburb"}}, {"type": "node", "id": 530261324, "lat": 32.090258, "lon": 34.8499516, "tags": {"name": "\u05e7\u05e8\u05d9\u05d9\u05ea \u05de\u05d8\u05dc\u05d5\u05df", "name:ar": "\u0643\u0631\u064a\u0627\u062a \u0645\u0637\u0627\u0644\u0648\u0646", "name:en": "Kiryat Matalon", "name:fr": "Kiryat Matalon", "name:he": "\u05e7\u05e8\u05d9\u05d9\u05ea \u05de\u05d8\u05dc\u05d5\u05df", "place": "suburb"}}, {"type": "node", "id": 530262184, "lat": 32.0868577, "lon": 34.8736128, "tags": {"name": "\u05e8\u05de\u05ea \u05d5\u05e8\u05d1\u05e8", "name:ar": "\u0631\u0645\u0627\u062a \u0648\u064a\u0631\u0628\u0631", "name:en": "Ramat Verber", "name:fr": "Ramat Verber", "name:he": "\u05e8\u05de\u05ea \u05d5\u05e8\u05d1\u05e8", "place": "suburb"}}, {"type": "node", "id": 530262343, "lat": 32.0727381, "lon": 34.8800277, "tags": {"name": "\u05d1\u05ea \u05d2\u05e0\u05d9\u05dd", "name:ar": "\u0628\u0627\u062a \u063a\u0646\u064a\u0645", "name:en": "Bat Ganim", "name:fr": "Bat Ganim", "name:he": "\u05d1\u05ea \u05d2\u05e0\u05d9\u05dd", "name:ur": "\u0628\u0627\u062a \u06af\u0646\u06cc\u0645", "place": "suburb"}}, {"type": "node", "id": 534733007, "lat": 32.0786568, "lon": 34.8814441}, {"type": "node", "id": 535070953, "lat": 32.0844779, "lon": 34.8910508}, {"type": "node", "id": 540602019, "lat": 32.0797004, "lon": 34.878129}, {"type": "node", "id": 599973086, "lat": 32.0777371, "lon": 34.8799767}, {"type": "node", "id": 610956284, "lat": 32.0765636, "lon": 34.8984469}, {"type": "node", "id": 612379301, "lat": 32.071801, "lon": 34.9160667}, {"type": "node", "id": 613149668, "lat": 32.0785759, "lon": 34.91252}, {"type": "node", "id": 613157853, "lat": 32.0777724, "lon": 34.9119702}, {"type": "node", "id": 613622965, "lat": 32.0740808, "lon": 34.909649}, {"type": "node", "id": 1026142890, "lat": 32.0752173, "lon": 34.9121832, "tags": {"accuracy": "minutes", "gns_ref": "-779201", "name": "\u05e2\u05de\u05d9\u05e9\u05d1", "name:ar": "\u0639\u0645\u064a\u0634\u0627\u0641", "name:en": "Amishav", "name:en1": "Ammishav", "name:fr": "Amishav", "name:he": "\u05e2\u05de\u05d9\u05e9\u05d1", "place": "suburb", "source": "GEOnet Names Server (gns)"}}, {"type": "node", "id": 1096018630, "lat": 32.0816695, "lon": 34.9055099}, {"type": "node", "id": 1334255858, "lat": 32.1090036, "lon": 34.8834735}, {"type": "node", "id": 1334255909, "lat": 32.1088654, "lon": 34.884276}, {"type": "node", "id": 1548636352, "lat": 32.0776928, "lon": 34.9145999}, {"type": "node", "id": 1671376474, "lat": 32.0968181, "lon": 34.8817902}, {"type": "node", "id": 1689821814, "lat": 32.09857, "lon": 34.8858631}, {"type": "node", "id": 1783443147, "lat": 32.0816508, "lon": 34.8983768}, {"type": "node", "id": 1783443152, "lat": 32.0789682, "lon": 34.8992157}, {"type": "node", "id": 1783443153, "lat": 32.078864, "lon": 34.8984908}, {"type": "node", "id": 1784386700, "lat": 32.0747944, "lon": 34.9103273}, {"type": "node", "id": 1803092087, "lat": 32.077107, "lon": 34.911754, "tags": {"addr:street": "\u05e9\u05dc\u05d5\u05dd \u05e6\u05dc\u05d7", "bus": "yes", "highway": "bus_stop", "name": "\u05e9\u05dc\u05d5\u05dd \u05e6\u05dc\u05d7/\u05d4\u05e8\u05d1 \u05d0\u05dc\u05e7\u05dc\u05e2\u05d9", "name:ar": "\u0634\u064e\u0644\u0648\u0645 \u0633\u064e\u0644\u064e\u062d/\u0647\u0631\u0627\u06a4 \u0627\u0644\u0643\u0644\u0639\u064a", "name:en": "Shalom Tsalah/HaRav Alkalay", "name:he": "\u05e9\u05dc\u05d5\u05dd \u05e6\u05dc\u05d7/\u05d4\u05e8\u05d1 \u05d0\u05dc\u05e7\u05dc\u05e2\u05d9", "public_transport": "platform", "ref": "38330", "source": "israel_gtfs"}}, {"type": "node", "id": 1806190892, "lat": 32.0688513, "lon": 34.9177943}, {"type": "node", "id": 2191767018, "lat": 32.0884286, "lon": 34.8842052, "tags": {"is_in:city": "\u05e4\u05ea\u05d7 \u05ea\u05e7\u05d5\u05d5\u05d4", "name": "\u05dc\u05d1 \u05d4\u05de\u05d5\u05e9\u05d1\u05d4", "name:en": "Lev HaMoshava", "name:en1": "City Center North", "name:fr": "Lev Hamoshava", "name:he": "\u05dc\u05d1 \u05d4\u05de\u05d5\u05e9\u05d1\u05d4", "name:he1": "\u05de\u05e8\u05db\u05d6 \u05d4\u05e2\u05d9\u05e8 \u05e6\u05e4\u05d5\u05df", "place": "suburb"}}, {"type": "node", "id": 2192585547, "lat": 32.0954273, "lon": 34.883683, "tags": {"name": "\u05e7\u05e8\u05d5\u05dc", "name:ar": "\u0643\u0631\u0648\u0644", "name:en": "Krol", "name:fr": "Krol", "name:he": "\u05e7\u05e8\u05d5\u05dc", "place": "suburb"}}, {"type": "node", "id": 2199677464, "lat": 32.0834648, "lon": 34.8701988, "tags": {"name": "\u05d1\u05e8 \u05d9\u05d4\u05d5\u05d3\u05d4", "name:ar": "\u0628\u0627\u0631 \u064a\u0647\u0648\u062f\u0627", "name:en": "Bar Yehuda", "name:fr": "Bar Yehuda", "name:he": "\u05d1\u05e8 \u05d9\u05d4\u05d5\u05d3\u05d4", "place": "suburb"}}, {"type": "node", "id": 2201332648, "lat": 32.0857858, "lon": 34.8666767, "tags": {"name": "\u05e0\u05d5\u05d5\u05d4 \u05d2\u05e0\u05d9\u05dd", "name:ar": "\u0646\u0641\u0629 \u062c\u0627\u0646\u064a\u0645", "name:en": "Neve Ganim", "name:fr": "Neve Ganim", "name:he": "\u05e0\u05d5\u05d5\u05d4 \u05d2\u05e0\u05d9\u05dd", "place": "suburb"}}, {"type": "node", "id": 2222931847, "lat": 32.0969428, "lon": 34.8913771, "tags": {"name": "\u05e9\u05d9\u05e4\u05e8", "name:ar": "\u0634\u064a\u0641\u064a\u0631", "name:en": "Shifer", "name:fr": "Shifer", "name:he": "\u05e9\u05d9\u05e4\u05e8", "place": "suburb"}}, {"type": "node", "id": 2235549220, "lat": 32.0932313, "lon": 34.8955064, "tags": {"name": "\u05ea\u05e7\u05d5\u05de\u05d4", "name:ar": "\u062a\u0643\u0648\u0645\u0627", "name:en": "Tkuma", "name:fr": "Tkuma", "name:he": "\u05ea\u05e7\u05d5\u05de\u05d4", "place": "suburb"}}, {"type": "node", "id": 2235572093, "lat": 32.0988293, "lon": 34.8984579, "tags": {"name": "\u05e7\u05e8\u05d9\u05d9\u05ea \u05d4\u05e8\u05d1 \u05e1\u05dc\u05d5\u05de\u05d5\u05df", "name:en": "Kiryat HaRav Salomon", "name:fr": "Kiryat Harav Salomon", "name:he": "\u05e7\u05e8\u05d9\u05d9\u05ea \u05d4\u05e8\u05d1 \u05e1\u05dc\u05d5\u05de\u05d5\u05df", "place": "suburb"}}, {"type": "node", "id": 2235572544, "lat": 32.0983517, "lon": 34.9017549, "tags": {"name": "\u05e9\u05d9\u05db\u05d5\u05df \u05d4\u05e4\u05d5\u05e2\u05dc \u05d4\u05de\u05d6\u05e8\u05d7\u05d9", "name:en": "Shikun HaPoel HaMizrahi", "name:fr": "Shikun HaPoel HaMizrahi", "name:he": "\u05e9\u05d9\u05db\u05d5\u05df \u05d4\u05e4\u05d5\u05e2\u05dc \u05d4\u05de\u05d6\u05e8\u05d7\u05d9", "place": "suburb"}}, {"type": "node", "id": 2336833049, "lat": 32.0785415, "lon": 34.890119, "tags": {"highway": "traffic_signals"}}, {"type": "node", "id": 2336833093, "lat": 32.0779323, "lon": 34.8801298, "tags": {"highway": "traffic_signals"}}, {"type": "node", "id": 2337039345, "lat": 32.1077525, "lon": 34.8749584}, {"type": "node", "id": 2337039360, "lat": 32.1079943, "lon": 34.8750093}, {"type": "node", "id": 2337039361, "lat": 32.1078781, "lon": 34.8749655}, {"type": "node", "id": 2342639634, "lat": 32.0776611, "lon": 34.8757455}, {"type": "node", "id": 2376514177, "lat": 32.0722913, "lon": 34.8848027}, {"type": "node", "id": 2376831212, "lat": 32.1059795, "lon": 34.8934142, "tags": {"name": "\u05e1\u05d2\u05d5\u05dc\u05d4", "name:ar": "\u0633\u062c\u0648\u0644\u0629", "name:en": "Sgula", "name:fr": "Sgula", "name:he": "\u05e1\u05d2\u05d5\u05dc\u05d4", "place": "suburb"}}, {"type": "node", "id": 2388503221, "lat": 32.0980264, "lon": 34.8813922, "tags": {"highway": "traffic_signals", "traffic_signals": "signal"}}, {"type": "node", "id": 2388503237, "lat": 32.1016048, "lon": 34.8833928}, {"type": "node", "id": 2396173986, "lat": 32.0982002, "lon": 34.8788939}, {"type": "node", "id": 2396174040, "lat": 32.1001831, "lon": 34.8793035}, {"type": "node", "id": 2412852378, "lat": 32.0766264, "lon": 34.8917412}, {"type": "node", "id": 2452662588, "lat": 32.0883173, "lon": 34.8577948, "tags": {"name": "\u05e8\u05de\u05ea \u05e1\u05d9\u05d1", "name:ar": "\u0631\u0645\u0627\u062a \u0633\u064a\u0641", "name:en": "Ramat Siv", "name:fr": "Ramat Siv", "name:he": "\u05e8\u05de\u05ea \u05e1\u05d9\u05d1", "place": "suburb"}}, {"type": "node", "id": 2473215542, "lat": 32.0672835, "lon": 34.9202895}, {"type": "node", "id": 2844166484, "lat": 32.0968404, "lon": 34.8857142}, {"type": "node", "id": 2844166491, "lat": 32.0979879, "lon": 34.8790683}, {"type": "node", "id": 2936740137, "lat": 32.084669, "lon": 34.9049832, "tags": {"name": "\u05e7\u05e8\u05d9\u05d9\u05ea \u05d0\u05dc\u05e2\u05d6\u05e8", "name:ar": "\u0643\u0631\u064a\u0627\u062a \u0625\u0644\u0639\u0632\u0631", "name:en": "Kiryat Elazar", "name:fr": "Kiryat Elazar", "name:he": "\u05e7\u05e8\u05d9\u05d9\u05ea \u05d0\u05dc\u05e2\u05d6\u05e8", "place": "suburb"}}, {"type": "node", "id": 3621756831, "lat": 32.0741581, "lon": 34.8893973, "tags": {"name": "\u05e9\u05d9\u05db\u05d5\u05df \u05de\u05e4\"\u05dd", "name:ar": "\u0634\u064a\u0643\u0648\u0646 \u0645\u0627\u0628\u0627\u0645", "name:en": "Shikun Mapam", "name:fr": "Shikun Mapam", "name:he": "\u05e9\u05d9\u05db\u05d5\u05df \u05de\u05e4\"\u05dd", "place": "suburb"}}, {"type": "node", "id": 3697278124, "lat": 32.1011705, "lon": 34.8767551}, {"type": "node", "id": 3697590328, "lat": 32.0789858, "lon": 34.8758262}, {"type": "node", "id": 3697590329, "lat": 32.0778873, "lon": 34.8757415}, {"type": "node", "id": 3709675539, "lat": 32.1029401, "lon": 34.87896, "tags": {"name": "\u05d0\u05dd \u05d4\u05de\u05d5\u05e9\u05d1\u05d5\u05ea \u05d4\u05d7\u05d3\u05e9\u05d4", "name:ar": "\u0623\u0645 \u0647\u0645\u0648\u0634\u0627\u0641\u0648\u062a \u0647\u062d\u062f\u0634\u0627", "name:en": "Em HaMoshavot HaHadasha", "name:fr": "Em HaMoshavot HaHadasha", "name:he": "\u05d0\u05dd \u05d4\u05de\u05d5\u05e9\u05d1\u05d5\u05ea \u05d4\u05d7\u05d3\u05e9\u05d4", "place": "suburb"}}, {"type": "node", "id": 3709694684, "lat": 32.0748073, "lon": 34.8702601, "tags": {"name": "\u05db\u05e4\u05e8 \u05d2\u05e0\u05d9\u05dd \u05d2'", "name:ar": "\u0643\u0641\u0627\u0631 \u062c\u0627\u0646\u064a\u0645 \u062c", "name:en": "Kafar Ganim C", "name:fr": "Kafar Ganim Gimel", "name:he": "\u05db\u05e4\u05e8 \u05d2\u05e0\u05d9\u05dd \u05d2'", "place": "suburb"}}, {"type": "node", "id": 3709724193, "lat": 32.0769091, "lon": 34.8791473, "tags": {"name": "\u05db\u05e4\u05e8 \u05d2\u05e0\u05d9\u05dd \u05d1'", "name:en": "Kfar Ganim Bet", "name:fr": "Kfar Ganim B", "name:he": "\u05db\u05e4\u05e8 \u05d2\u05e0\u05d9\u05dd \u05d1'", "place": "suburb"}}, {"type": "node", "id": 4403748713, "lat": 32.0693725, "lon": 34.9107676, "tags": {"name": "\u05d2\u05e0\u05d9 \u05d4\u05d3\u05e8", "name:ar": "\u062c\u0627\u0646\u064a \u0647\u062f\u0627\u0631", "name:en": "Ganei Hadar", "name:fr": "Ganei Hadar", "name:he": "\u05d2\u05e0\u05d9 \u05d4\u05d3\u05e8", "place": "suburb"}}, {"type": "node", "id": 4403748714, "lat": 32.075991, "lon": 34.9057036, "tags": {"name": "\u05d4\u05d3\u05e8 \u05d2\u05e0\u05d9\u05dd", "name:ar": "\u0647\u062f\u0627\u0631 \u062c\u0627\u0646\u064a\u0645", "name:en": "Hadar Ganim", "name:fr": "Hadar Ganim", "name:he": "\u05d4\u05d3\u05e8 \u05d2\u05e0\u05d9\u05dd", "place": "suburb"}}, {"type": "node", "id": 5406129453, "lat": 32.0992323, "lon": 34.8904241, "tags": {"name": "\u05e0\u05d5\u05d5\u05d4 \u05de\u05e2\u05d5\u05d6", "name:en": "Neve Ma'oz", "name:fr": "Neve Maoz", "name:he": "\u05e0\u05d5\u05d5\u05d4 \u05de\u05e2\u05d5\u05d6", "place": "suburb"}}, {"type": "node", "id": 6830551469, "lat": 32.0723614, "lon": 34.9130721}, {"type": "node", "id": 6830551470, "lat": 32.0721389, "lon": 34.9141274}, {"type": "node", "id": 7422372776, "lat": 32.0736577, "lon": 34.9101061, "tags": {"natural": "tree"}}, {"type": "node", "id": 7425833023, "lat": 32.0726318, "lon": 34.9098093}, {"type": "node", "id": 7616943290, "lat": 32.1021023, "lon": 34.899451, "tags": {"name": "\u05de\u05e9\u05db\u05e0\u05d5\u05ea \u05d2\u05e0\u05d9\u05dd", "name:en": "Mishkenot Ganim", "name:fr": "Mishkenot Ganim", "name:he": "\u05de\u05e9\u05db\u05e0\u05d5\u05ea \u05d2\u05e0\u05d9\u05dd", "place": "suburb"}}, {"type": "node", "id": 7822919533, "lat": 32.0803384, "lon": 34.8857453, "tags": {"is_in:city": "\u05e4\u05ea\u05d7 \u05ea\u05e7\u05d5\u05d5\u05d4", "name": "\u05d4\u05de\u05e8\u05db\u05d6 \u05d4\u05e9\u05e7\u05d8", "name:en": "The Quiet Center", "name:en1": "City Center South", "name:fr": "The Quiet Center", "name:he": "\u05d4\u05de\u05e8\u05db\u05d6 \u05d4\u05e9\u05e7\u05d8", "name:he1": "\u05de\u05e8\u05db\u05d6 \u05d4\u05e2\u05d9\u05e8 \u05d3\u05e8\u05d5\u05dd", "place": "suburb"}}, {"type": "node", "id": 7953652153, "lat": 32.0684047, "lon": 34.9037987, "tags": {"crossing": "marked", "highway": "crossing"}}, {"type": "node", "id": 8123418942, "lat": 32.0789257, "lon": 34.8703646}, {"type": "node", "id": 8281790680, "lat": 32.0845026, "lon": 34.8731823}, {"type": "node", "id": 8281790685, "lat": 32.0818689, "lon": 34.8706092}, {"type": "node", "id": 9316002099, "lat": 32.0854221, "lon": 34.8958847}, {"type": "node", "id": 9316002100, "lat": 32.0808044, "lon": 34.8931094}, {"type": "node", "id": 9316014347, "lat": 32.0822839, "lon": 34.8932157, "tags": {"name": "\u05de\u05d7\u05e0\u05d4 \u05d9\u05d4\u05d5\u05d3\u05d4", "name:en": "Mahane Yehuda", "name:fr": "Mahan\u00e9 Yehuda", "name:he": "\u05de\u05d7\u05e0\u05d4 \u05d9\u05d4\u05d5\u05d3\u05d4", "place": "suburb"}}, {"type": "node", "id": 9316014348, "lat": 32.0836448, "lon": 34.8918946, "tags": {"name": "\u05de\u05d7\u05e0\u05d4 \u05d9\u05d4\u05d5\u05d3\u05d4", "name:en": "Mahane Yehuda", "name:fr": "Mahan\u00e9 Yehuda", "name:he": "\u05de\u05d7\u05e0\u05d4 \u05d9\u05d4\u05d5\u05d3\u05d4", "place": "suburb"}}, {"type": "node", "id": 9316014349, "lat": 32.083744, "lon": 34.8955758, "tags": {"name": "\u05de\u05d7\u05e0\u05d4 \u05d9\u05d4\u05d5\u05d3\u05d4", "name:en": "Mahane Yehuda", "name:fr": "Mahan\u00e9 Yehuda", "name:he": "\u05de\u05d7\u05e0\u05d4 \u05d9\u05d4\u05d5\u05d3\u05d4", "place": "suburb"}}, {"type": "node", "id": 9316014350, "lat": 32.0786412, "lon": 34.8927953, "tags": {"name": "\u05de\u05d7\u05e0\u05d4 \u05d9\u05d4\u05d5\u05d3\u05d4", "name:en": "Mahane Yehuda", "name:fr": "Mahan\u00e9 Yehuda", "name:he": "\u05de\u05d7\u05e0\u05d4 \u05d9\u05d4\u05d5\u05d3\u05d4", "place": "suburb"}}, {"type": "node", "id": 9316014351, "lat": 32.0795515, "lon": 34.8968372, "tags": {"name": "\u05de\u05d7\u05e0\u05d4 \u05d9\u05d4\u05d5\u05d3\u05d4", "name:en": "Mahane Yehuda", "name:fr": "Mahan\u00e9 Yehuda", "name:he": "\u05de\u05d7\u05e0\u05d4 \u05d9\u05d4\u05d5\u05d3\u05d4", "place": "suburb"}}, {"type": "node", "id": 9318288198, "lat": 32.085264, "lon": 34.8783263}, {"type": "node", "id": 9318288199, "lat": 32.0779918, "lon": 34.8800619}, {"type": "node", "id": 9318288200, "lat": 32.0818773, "lon": 34.8714033}, {"type": "node", "id": 9318288201, "lat": 32.081876, "lon": 34.8730553}, {"type": "node", "id": 9318366203, "lat": 32.0756649, "lon": 34.8850662}, {"type": "node", "id": 9318366204, "lat": 32.0734164, "lon": 34.8878971}, {"type": "node", "id": 9318366205, "lat": 32.0724081, "lon": 34.8891251}, {"type": "node", "id": 9318366206, "lat": 32.0715324, "lon": 34.8902232}, {"type": "node", "id": 9318366207, "lat": 32.0696423, "lon": 34.8898425}, {"type": "node", "id": 9318366208, "lat": 32.0702035, "lon": 34.8855997}, {"type": "node", "id": 9318366209, "lat": 32.0741489, "lon": 34.884246}, {"type": "node", "id": 9318366211, "lat": 32.0746545, "lon": 34.8759832}, {"type": "node", "id": 9318366212, "lat": 32.0777131, "lon": 34.876369}, {"type": "node", "id": 9318398064, "lat": 32.0741535, "lon": 34.8839493}, {"type": "node", "id": 9318398065, "lat": 32.0718079, "lon": 34.8840883}, {"type": "node", "id": 9318398066, "lat": 32.0710169, "lon": 34.8812475}, {"type": "node", "id": 9318398067, "lat": 32.0710818, "lon": 34.8789422}, {"type": "node", "id": 9318398068, "lat": 32.0717962, "lon": 34.8787746}, {"type": "node", "id": 9318398069, "lat": 32.0720328, "lon": 34.879237}, {"type": "node", "id": 9318398070, "lat": 32.0745987, "lon": 34.8789651}, {"type": "node", "id": 9337449487, "lat": 32.0700917, "lon": 34.8868101}, {"type": "node", "id": 9337449488, "lat": 32.0699205, "lon": 34.8882505}, {"type": "node", "id": 9350278324, "lat": 32.1090908, "lon": 34.8791542}, {"type": "node", "id": 9350278325, "lat": 32.1075267, "lon": 34.8875932}, {"type": "node", "id": 9350278326, "lat": 32.1055584, "lon": 34.8862682}, {"type": "node", "id": 9350278327, "lat": 32.1032203, "lon": 34.8849242}, {"type": "node", "id": 9350278328, "lat": 32.1020579, "lon": 34.8837839}, {"type": "node", "id": 9350278329, "lat": 32.1014328, "lon": 34.8835098}, {"type": "node", "id": 9350278330, "lat": 32.100267, "lon": 34.8844515}, {"type": "node", "id": 9350278331, "lat": 32.0990225, "lon": 34.8856289}, {"type": "node", "id": 9350278332, "lat": 32.0980368, "lon": 34.8815155}, {"type": "node", "id": 9350278333, "lat": 32.0979023, "lon": 34.8799227}, {"type": "node", "id": 9350278334, "lat": 32.1004599, "lon": 34.877693}, {"type": "node", "id": 9350278335, "lat": 32.1017036, "lon": 34.8768513}, {"type": "node", "id": 9350278336, "lat": 32.1049734, "lon": 34.8764646}, {"type": "node", "id": 9350278337, "lat": 32.1071881, "lon": 34.8752967}, {"type": "node", "id": 9350278338, "lat": 32.1079279, "lon": 34.8749843}, {"type": "node", "id": 9358163065, "lat": 32.0824694, "lon": 34.9034785}, {"type": "node", "id": 9358163066, "lat": 32.0806071, "lon": 34.9078512}, {"type": "node", "id": 9358163067, "lat": 32.0792463, "lon": 34.9110274}, {"type": "node", "id": 9358163068, "lat": 32.078631, "lon": 34.9123974}, {"type": "node", "id": 9358163069, "lat": 32.076534, "lon": 34.9115538}, {"type": "node", "id": 9358163070, "lat": 32.0752567, "lon": 34.9107348}, {"type": "node", "id": 9358163071, "lat": 32.07148, "lon": 34.90945}, {"type": "node", "id": 9358163072, "lat": 32.070886, "lon": 34.9110749}, {"type": "node", "id": 9358163073, "lat": 32.069328, "lon": 34.9153301}, {"type": "node", "id": 9358163074, "lat": 32.0690419, "lon": 34.9161439}, {"type": "node", "id": 9358163075, "lat": 32.0673152, "lon": 34.9172002}, {"type": "node", "id": 9358163076, "lat": 32.0671624, "lon": 34.9125779}, {"type": "node", "id": 9358163077, "lat": 32.0670309, "lon": 34.9102551}, {"type": "node", "id": 9358163078, "lat": 32.0669312, "lon": 34.9087429}, {"type": "node", "id": 9358163079, "lat": 32.0673178, "lon": 34.9060292}, {"type": "node", "id": 9358163080, "lat": 32.0700952, "lon": 34.9038093}, {"type": "node", "id": 9358163081, "lat": 32.0727218, "lon": 34.9038016}, {"type": "node", "id": 9358163082, "lat": 32.0791467, "lon": 34.9035094}, {"type": "node", "id": 9358163083, "lat": 32.0824369, "lon": 34.9025179}, {"type": "node", "id": 9358209660, "lat": 32.072411, "lon": 34.9130863}, {"type": "node", "id": 9358209661, "lat": 32.0723189, "lon": 34.9130802}, {"type": "node", "id": 9358209662, "lat": 32.0717254, "lon": 34.9170521}, {"type": "node", "id": 9358209663, "lat": 32.0716137, "lon": 34.9185089}, {"type": "node", "id": 9358209664, "lat": 32.0716, "lon": 34.9193121}, {"type": "node", "id": 9358209665, "lat": 32.070268, "lon": 34.9193658}, {"type": "node", "id": 9358209666, "lat": 32.0698874, "lon": 34.9194075}, {"type": "node", "id": 9358209667, "lat": 32.069353, "lon": 34.9187397}, {"type": "node", "id": 9358209668, "lat": 32.0690439, "lon": 34.9183063}, {"type": "node", "id": 9358209669, "lat": 32.0689001, "lon": 34.917076}, {"type": "node", "id": 9358209670, "lat": 32.0695134, "lon": 34.915203}, {"type": "node", "id": 9358209671, "lat": 32.0704556, "lon": 34.912562}, {"type": "node", "id": 9358209672, "lat": 32.0711877, "lon": 34.9105864}, {"type": "node", "id": 9358209673, "lat": 32.0717708, "lon": 34.9094254}, {"type": "node", "id": 9358209674, "lat": 32.0756485, "lon": 34.9110504}, {"type": "node", "id": 9358209675, "lat": 32.0773232, "lon": 34.9118981}, {"type": "node", "id": 9762056721, "lat": 32.0745544, "lon": 34.8834049}, {"type": "node", "id": 9762056722, "lat": 32.0745082, "lon": 34.8835932}, {"type": "node", "id": 9762056724, "lat": 32.0745856, "lon": 34.8819359}, {"type": "node", "id": 9996605056, "lat": 32.0978765, "lon": 34.8815516}, {"type": "node", "id": 9996605057, "lat": 32.0974487, "lon": 34.8816581}, {"type": "node", "id": 10078252369, "lat": 32.0825334, "lon": 34.9025102}, {"type": "node", "id": 10078252371, "lat": 32.0825676, "lon": 34.9029235}, {"type": "node", "id": 10078252379, "lat": 32.0825422, "lon": 34.9032416}, {"type": "node", "id": 10301586465, "lat": 32.0784133, "lon": 34.9124091}, {"type": "node", "id": 10301586467, "lat": 32.0785078, "lon": 34.9126804}, {"type": "node", "id": 10301586501, "lat": 32.0787412, "lon": 34.9121521}, {"type": "way", "id": 1009691062, "nodes": [9316002099, 200667525, 1783443147, 1783443152, 1783443153, 610956284, 2412852378, 2336833049, 9316002100, 535070953, 9316002099], "tags": {"name": "\u05de\u05d7\u05e0\u05d4 \u05d9\u05d4\u05d5\u05d3\u05d4", "name:en": "Mahane Yehuda", "place": "suburb"}}, {"type": "way", "id": 1009939220, "nodes": [9318288198, 540602019, 9318288199, 2336833093, 3697590329, 3697590328, 8123418942, 8281790685, 9318288200, 9318288201, 8281790680, 9318288198], "tags": {"name": "\u05db\u05e4\u05e8 \u05d2\u05e0\u05d9\u05dd \u05d0'", "name:en": "Kfar Ganim A", "place": "suburb"}}, {"type": "way", "id": 1009943083, "nodes": [534733007, 9318366203, 9318366204, 9318366205, 9318366206, 9318366207, 9337449488, 9337449487, 9318366208, 9318366209, 9762056722, 9762056721, 9762056724, 9318366211, 2342639634, 9318366212, 599973086, 534733007], "tags": {"name": "\u05db\u05e4\u05e8 \u05d2\u05e0\u05d9\u05dd \u05d1'", "name:en": "Kfar Ganim B", "name:he": "\u05db\u05e4\u05e8 \u05d2\u05e0\u05d9\u05dd \u05d1'", "place": "suburb"}}, {"type": "way", "id": 1009948907, "nodes": [9318398064, 2376514177, 9318398065, 9318398066, 9318398067, 9318398068, 9318398069, 9318398070, 9318398064], "tags": {"name": "\u05d1\u05ea \u05d2\u05e0\u05d9\u05dd", "name:ar": "\u0628\u0627\u062a \u063a\u0646\u064a\u0645", "name:en": "Bat Ganim", "name:he": "\u05d1\u05ea \u05d2\u05e0\u05d9\u05dd", "name:ur": "\u0628\u0627\u062a \u06af\u0646\u06cc\u0645", "place": "suburb"}}, {"type": "way", "id": 1013468865, "nodes": [2337039360, 9350278324, 1334255858, 1334255909, 9350278325, 9350278326, 9350278327, 9350278328, 2388503237, 9350278329, 9350278330, 9350278331, 1689821814, 2844166484, 1671376474, 9996605057, 9996605056, 9350278332, 2388503221, 9350278333, 2844166491, 2396173986, 2396174040, 9350278334, 3697278124, 9350278335, 9350278336, 9350278337, 2337039345, 2337039361, 9350278338, 2337039360], "tags": {"name": "Em Hamoshavot hadasha", "name:en1": "Hadar hamoshavot hadasha", "name:he": "\u05d0\u05dd \u05d4\u05de\u05d5\u05e9\u05d1\u05d5\u05ea \u05d4\u05d7\u05d3\u05e9\u05d4", "place": "suburb"}}, {"type": "way", "id": 1014337037, "nodes": [10301586465, 613149668, 10301586467, 1548636352, 9358209660, 6830551469, 6830551470, 9358209661, 612379301, 9358209662, 9358209663, 9358209664, 529902518, 9358209665, 9358209666, 9358209667, 9358209668, 1806190892, 9358209669, 9358209670, 9358209671, 9358209672, 298084902, 9358209673, 529900060, 613622965, 9358209674, 9358209675, 613157853, 10301586465], "tags": {"name": "Amishav", "name:en": "Amishav", "name:he": "\u05e2\u05de\u05d9\u05e9\u05d1", "place": "suburb"}}, {"type": "way", "id": 1014341742, "nodes": [10078252369, 10078252371, 10078252379, 9358163065, 1096018630, 9358163066, 9358163067, 10301586501, 9358163068, 1803092087, 9358163069, 9358163070, 1784386700, 613622965, 7422372776, 7425833023, 529899122, 9358163071, 9358163072, 9358163073, 9358163074, 2473215542, 9358163075, 9358163076, 9358163077, 9358163078, 9358163079, 7953652153, 9358163080, 9358163081, 9358163082, 9358163083, 10078252369], "tags": {"name": "\u05d4\u05d3\u05e8 \u05d2\u05e0\u05d9\u05dd", "name:en": "Hadar ganim", "name:he": "\u05d4\u05d3\u05e8 \u05d2\u05e0\u05d9\u05dd", "place": "suburb"}}]}