{"version": 0.6, "generator": "Overpass API 0.7.59.4 36d058c8", "osm3s": {"timestamp_osm_base": "2023-03-21T15:45:24Z", "copyright": "The data included in this document is from www.openstreetmap.org. The data is made available under ODbL."}, "elements": [{"type": "node", "id": 278469824, "lat": 31.8017893, "lon": 35.2228759, "tags": {"accuracy": "minutes", "gns_ref": "-781146", "name": "\u05e8\u05de\u05ea \u05d0\u05e9\u05db\u05d5\u05dc", "name:en": "Ramat Eshkol", "name:en1": "Ramot Eshkol", "name:fr": "Ramat Eshkol", "name:he": "\u05e8\u05de\u05ea \u05d0\u05e9\u05db\u05d5\u05dc", "name:he1": "\u05e8\u05de\u05d5\u05ea \u05d0\u05e9\u05db\u05d5\u05dc", "place": "suburb", "source": "GEOnet Names Server (gns)", "wikidata": "Q2778124"}}, {"type": "node", "id": 278470233, "lat": 31.7643601, "lon": 35.1750449, "tags": {"accuracy": "minutes", "gns_ref": "-781096", "name": "\u05e7\u05e8\u05d9\u05ea \u05d4\u05d9\u05d5\u05d1\u05dc", "name:ar": "\u0643\u0631\u064a\u0627\u062a \u0647\u0627\u064a\u0648\u06a4\u064a\u0644", "name:en": "Qiryat HaYovel", "name:en1": "Beit Mazmil", "name:en2": "Jubilee Town", "name:en3": "Kiryat-Hayovel", "name:fi": "Kirjat HaJovel", "name:fr": "Kiryat HaYovel", "name:he": "\u05e7\u05e8\u05d9\u05ea \u05d4\u05d9\u05d5\u05d1\u05dc", "place": "suburb", "source": "GEOnet Names Server (gns)", "wikidata": "Q2778158"}}, {"type": "node", "id": 278470480, "lat": 31.802587, "lon": 35.2175385, "tags": {"accuracy": "minutes", "alt_name:en": "Sanhedria HaMurchevet", "gns_ref": "-781289", "name": "\u05e1\u05e0\u05d4\u05d3\u05e8\u05d9\u05d4 \u05de\u05d5\u05e8\u05d7\u05d1\u05ea", "name:cs": "Sanhedrija ha-Murchevet", "name:en": "Sanhedria HaMurhevet", "name:fr": "Sanhedria Murhevet", "name:he": "\u05e1\u05e0\u05d4\u05d3\u05e8\u05d9\u05d4 \u05de\u05d5\u05e8\u05d7\u05d1\u05ea", "place": "suburb", "source": "GEOnet Names Server (gns)", "wikidata": "Q2899251"}}, {"type": "node", "id": 278470644, "lat": 31.7911185, "lon": 35.1931023, "tags": {"accuracy": "minutes", "gns_ref": "-779924", "name": "\u05d2\u05d1\u05e2\u05ea \u05e9\u05d0\u05d5\u05dc", "name:en": "Givat Shaul", "name:fr": "Givat Shaul", "name:he": "\u05d2\u05d1\u05e2\u05ea \u05e9\u05d0\u05d5\u05dc", "place": "suburb", "source": "GEOnet Names Server (gns)", "wikidata": "Q2778178"}}, {"type": "node", "id": 278471069, "lat": 31.7556535, "lon": 35.1731258, "tags": {"accuracy": "minutes", "gns_ref": "-780266", "name": "\u05e2\u05d9\u05e8 \u05d2\u05e0\u05d9\u05dd", "name:en": "Ir Gannim", "name:fr": "Ir Ganim", "name:he": "\u05e2\u05d9\u05e8 \u05d2\u05e0\u05d9\u05dd", "place": "suburb", "source": "GEOnet Names Server (gns)", "wikidata": "Q2897167"}}, {"type": "node", "id": 278473074, "lat": 31.7578408, "lon": 35.1649162, "tags": {"accuracy": "minutes", "gns_ref": "-781100", "name": "\u05e7\u05e8\u05d9\u05ea \u05de\u05e0\u05d7\u05dd", "name:en": "Qiryat Menahem", "name:fr": "Kiryat Menachem", "name:he": "\u05e7\u05e8\u05d9\u05ea \u05de\u05e0\u05d7\u05dd", "place": "suburb", "source": "GEOnet Names Server (gns)", "wikidata": "Q2906618"}}, {"type": "node", "id": 278473356, "lat": 31.778508, "lon": 35.1851649, "tags": {"accuracy": "minutes", "gns_ref": "-781733", "int_name": "Yafe Nof", "name": "\u05d9\u05e4\u05d4 \u05e0\u05d5\u05e3", "name:en": "Yefe Nof", "name:fr": "Yefeh Nof", "name:he": "\u05d9\u05e4\u05d4 \u05e0\u05d5\u05e3", "place": "suburb", "source": "GEOnet Names Server (gns)", "wikidata": "Q2904408"}}, {"type": "node", "id": 278474182, "lat": 31.7595534, "lon": 35.2196723, "tags": {"accuracy": "minutes", "alt_name:he": "\u05d2\u05d0\u05d5\u05dc\u05d9\u05dd", "gns_ref": "-779867", "name": "\u05d1\u05e7\u05e2\u05d4", "name:ar": "\u0628\u0642\u0639\u0647", "name:cs": "Bak'a", "name:en": "Baka", "name:fr": "Baka", "name:he": "\u05d1\u05e7\u05e2\u05d4", "name:ru": "\u0411\u0430\u043a\u0430", "official_name:cs": "Ge'ulim", "official_name:en": "Geullim", "place": "suburb", "source": "GEOnet Names Server (gns)", "wikidata": "Q2916464"}}, {"type": "node", "id": 278475686, "lat": 31.800079, "lon": 35.2201992, "tags": {"accuracy": "minutes", "gns_ref": "-781288", "name": "\u05e1\u05e0\u05d4\u05d3\u05e8\u05d9\u05d4", "name:en": "Sanhedriyya", "name:fr": "Sanh\u00e9driah", "name:he": "\u05e1\u05e0\u05d4\u05d3\u05e8\u05d9\u05d4", "place": "suburb", "source": "GEOnet Names Server (gns)", "wikidata": "Q2749900"}}, {"type": "node", "id": 278475869, "lat": 31.7645177, "lon": 35.2324444, "tags": {"alt_name:ar": "\u063a\u064a\u0641\u0639\u0627\u062a \u062d\u0646\u0627\u0646\u064a\u0647;\u0627\u0644\u062b\u0648\u0631\u064a", "alt_name:cs": "Giv'at Chanaja", "alt_name:en": "Givat Hananya;Ath-Thuri", "alt_name:he": "\u05d2\u05d1\u05e2\u05ea \u05d7\u05e0\u05e0\u05d9\u05d4;\u05d0\u05dc \u05ea'\u05d5\u05e8\u05d9", "is_in": "Jerusalem", "name": "\u05d0\u05d1\u05d5 \u05d8\u05d5\u05e8", "name:ar": "\u0623\u0628\u0648 \u0637\u0648\u0631", "name:cs": "Abu Tor", "name:en": "Abu Tor", "name:fr": "Abu Tor", "name:he": "\u05d0\u05d1\u05d5 \u05d8\u05d5\u05e8", "place": "suburb", "wikidata": "Q2918520"}}, {"type": "node", "id": 278476009, "lat": 31.7515394, "lon": 35.2160228, "tags": {"alt_name:en": "Arnona", "alt_name:he": "\u05d0\u05e8\u05e0\u05d5\u05e0\u05d4", "gns_ref": "-781508", "name": "\u05ea\u05dc\u05e4\u05d9\u05d5\u05ea", "name:ar": "\u062a\u0644\u0628\u064a\u0648\u062a", "name:en": "Talpiot", "name:fr": "Talpiot", "name:he": "\u05ea\u05dc\u05e4\u05d9\u05d5\u05ea", "name:ru": "\u0422\u0430\u043b\u043f\u0438\u043e\u0442", "place": "suburb", "source": "GEOnet Names Server (gns);local knowledge", "wikidata": "Q1310344", "wikipedia": "en:Talpiot"}}, {"type": "node", "id": 278476471, "lat": 31.7641422, "lon": 35.1866879, "tags": {"accuracy": "minutes", "alt_name:ar": "\u0628\u064a\u064a\u062a \u0648\u064a\u0686\u0627\u0646", "alt_name:en": "Bayit Vegan", "gns_ref": "-779350", "name": "\u05d1\u05d9\u05ea \u05d5\u05d2\u05df", "name:ar": "\u0628\u064a\u064a\u062a \u0641\u064a\u063a\u0627\u0646", "name:en": "Bayit Wegan", "name:fr": "Bayit VeGan", "name:he": "\u05d1\u05d9\u05ea \u05d5\u05d2\u05df", "place": "suburb", "source": "GEOnet Names Server (gns)", "wikidata": "Q2918524"}}, {"type": "node", "id": 278477123, "lat": 31.7789979, "lon": 35.1894235, "tags": {"accuracy": "minutes", "gns_ref": "-779438", "int_name": "Beit Hakerem", "name": "\u05d1\u05d9\u05ea \u05d4\u05db\u05e8\u05dd", "name:en": "Beit HaKerem", "name:en1": "Bet HaKerem", "name:fr": "Beit HaKerem", "name:he": "\u05d1\u05d9\u05ea \u05d4\u05db\u05e8\u05dd", "place": "suburb", "source": "GEOnet Names Server (gns)", "wikidata": "Q2918294"}}, {"type": "node", "id": 278477134, "lat": 31.7916556, "lon": 35.2036799, "tags": {"accuracy": "minutes", "alt_name:cs": "Vyzdvihnut\u00e1", "alt_name:en": "Uplifted", "gns_ref": "-781241", "name": "\u05e8\u05d5\u05de\u05de\u05d4", "name:ar": "\u0631\u0648\u0645\u064a\u0645\u0627", "name:cs": "Romema", "name:en": "Romema", "name:en1": "Romeima Quarter", "name:fi": "Romema", "name:fr": "Romema", "name:he": "\u05e8\u05d5\u05de\u05de\u05d4", "name:ru": "\u0420\u043e\u043c\u0435\u043c\u0430", "place": "suburb", "source": "GEOnet Names Server (gns)", "wikidata": "Q2919398"}}, {"type": "node", "id": 278477279, "lat": 31.7778868, "lon": 35.1969128, "tags": {"accuracy": "minutes", "gns_ref": "-779921", "name": "\u05d2\u05d1\u05e2\u05ea \u05e8\u05dd", "name:en": "Givat Ram", "name:fr": "Guivat Ram", "name:he": "\u05d2\u05d1\u05e2\u05ea \u05e8\u05dd", "place": "suburb", "source": "GEOnet Names Server (gns)", "wikidata": "Q2426848"}}, {"type": "node", "id": 278477306, "lat": 31.7990943, "lon": 35.2496729, "tags": {"accuracy": "minutes", "alt_name:cs": "Isavija", "alt_name:en": "Isawiyya;Issawiya", "gns_ref": "-780272", "is_in:country": "Israel", "is_in:state": "Jerusalem", "name": "\u05e2\u05d9\u05e1\u05d5\u05d5\u05d9\u05d4", "name:ar": "\u0627\u0644\u0639\u064a\u0633\u0648\u064a\u0629", "name:cs": "\u00cdss\u00e1v\u00edja", "name:en": "Isawiya", "name:fr": "Issawiya", "name:he": "\u05e2\u05d9\u05e1\u05d5\u05d5\u05d9\u05d4", "name:id": "Isawiya", "place": "suburb", "source": "GEOnet Names Server (gns)", "wikidata": "Q947454", "wikipedia": "en:Isawiya"}}, {"type": "node", "id": 278477772, "lat": 31.7850583, "lon": 35.194389, "tags": {"accuracy": "minutes", "gns_ref": "-781101", "name": "\u05e7\u05e8\u05d9\u05ea \u05de\u05e9\u05d4", "name:en": "Kiryat Moshe", "name:en1": "Kiriat Moshe", "name:en2": "Montefiore", "name:en3": "Shekhunat Montefiore", "name:fr": "Kiryat Moshe", "name:he": "\u05e7\u05e8\u05d9\u05ea \u05de\u05e9\u05d4", "place": "suburb", "source": "GEOnet Names Server (gns)", "wikidata": "Q2916142"}}, {"type": "node", "id": 278478009, "lat": 31.762696, "lon": 35.1968266, "tags": {"accuracy": "minutes", "gns_ref": "-779917", "name": "\u05d2\u05d1\u05e2\u05ea \u05de\u05e8\u05d3\u05db\u05d9", "name:en": "Givat Mordekhay", "name:fr": "Givat Mordechai", "name:he": "\u05d2\u05d1\u05e2\u05ea \u05de\u05e8\u05d3\u05db\u05d9", "place": "suburb", "source": "GEOnet Names Server (gns)", "wikidata": "Q2901594"}}, {"type": "node", "id": 278478444, "lat": 31.7514658, "lon": 35.1829753, "tags": {"accuracy": "minutes", "gns_ref": "-780568", "image": "https://upload.wikimedia.org/wikipedia/commons/5/5f/Al-Maliha1.jpg", "name": "\u05de\u05dc\u05d7\u05d4", "name:ar": "\u0627\u0644\u0645\u0627\u0644\u062d\u0629", "name:en": "Malha", "name:en1": "Al Malha", "name:en2": "Al Maliha", "name:en3": "Manahat", "name:en4": "Malhah", "name:en5": "Maliha", "name:fr": "Malha", "name:he": "\u05de\u05dc\u05d7\u05d4", "name:he1": "\u05de\u05e0\u05d7\u05ea", "place": "suburb", "source": "GEOnet Names Server (gns)", "wikidata": "Q2915596", "wikipedia": "he:\u05de\u05dc\u05d7\u05d4 (\u05e9\u05db\u05d5\u05e0\u05d4)", "wikipedia:en": "Malha", "wikipedia:he": "\u05de\u05dc\u05d7\u05d4 (\u05e9\u05db\u05d5\u05e0\u05d4)"}}, {"type": "node", "id": 332794849, "lat": 31.8748922, "lon": 35.2187739, "tags": {"is_in:state": "Jerusalem", "name": "\u05db\u05e4\u05e8 \u05e2\u05e7\u05d1", "name:ar": "\u0643\u0641\u0631 \u0639\u0642\u0628", "name:en": "Kafr 'Aqab", "name:fi": "Kfar Akab", "name:fr": "Kafr Akab", "name:he": "\u05db\u05e4\u05e8 \u05e2\u05e7\u05d1", "name:id": "Kafr Aqab", "place": "suburb", "wikidata": "Q2918647", "wikipedia": "he:\u05db\u05e4\u05e8 \u05e2\u05e7\u05d1"}}, {"type": "node", "id": 334463851, "lat": 31.8248703, "lon": 35.2277301, "tags": {"alt_name:cs": "Bejt Chan\u00edna", "alt_name:he": "\u05d1\u05d9\u05ea \u05d7\u05e0\u05d9\u05e0\u05d0", "name": "\u05d1\u05d9\u05ea \u05d7\u05e0\u05d9\u05e0\u05d0", "name:ar": "\u0628\u064a\u062a \u062d\u0646\u064a\u0646\u0627", "name:cs": "Bejt Han\u00edna", "name:en": "Beit Hanina", "name:fr": "Beit Hanina", "name:he": "\u05d1\u05d9\u05ea \u05d7\u05e0\u05d9\u05e0\u05d0", "place": "suburb", "source": "http://vprofile.arij.org/jerusalem/ar/pdfs/vprofile/BeitHanina_VP_ar.pdf", "wikidata": "Q2919614", "wikipedia": "he:\u05d1\u05d9\u05ea \u05d7\u05e0\u05d9\u05e0\u05d0"}}, {"type": "node", "id": 334464842, "lat": 31.8107643, "lon": 35.2352104, "tags": {"alt_name:en": "Shu'fat", "name": "\u05e9\u05d5\u05e2\u05e4\u05d8", "name:ar": "\u0634\u0639\u0641\u0627\u0637\u200e", "name:cs": "\u0160u'af\u00e1t", "name:en": "Shuafat", "name:fr": "Shuafat", "name:he": "\u05e9\u05d5\u05e2\u05e4\u05d8", "place": "suburb", "wikidata": "Q2915231", "wikipedia": "he:\u05e9\u05d5\u05e2\u05e4\u05d0\u05d8", "wikipedia:he": "\u05e9\u05d5\u05e2\u05e4\u05d0\u05d8"}}, {"type": "node", "id": 334491712, "lat": 31.7379075, "lon": 35.2314339, "tags": {"alt_name:en": "Tsur Baher", "is_in": "Jerusalem", "name": "\u05e6\u05d5\u05e8 \u05d1\u05d0\u05d4\u05e8", "name:ar": "\u0635\u0648\u0631 \u0628\u0627\u0647\u0631", "name:cs": "S\u00far B\u00e1hir", "name:en": "Sur Baher", "name:fr": "Tsour Baher", "name:he": "\u05e6\u05d5\u05e8 \u05d1\u05d0\u05d4\u05e8", "name:he1": "\u05e1\u05d5\u05e8 \u05d1\u05d0\u05d4\u05e8", "name:mk": "\u0428\u0443\u0440 \u0411\u0430\u0445\u0435\u0440", "name:pl": "Sur Baher", "place": "suburb", "wikidata": "Q2916287", "wikipedia": "ar:\u0635\u0648\u0631 \u0628\u0627\u0647\u0631"}}, {"type": "node", "id": 334492197, "lat": 31.7441489, "lon": 35.2062517, "tags": {"name": "\u05d1\u05d9\u05ea \u05e6\u05e4\u05d0\u05e4\u05d0", "name:ar": "\u0628\u064a\u062a \u0635\u0641\u0627\u0641\u0627", "name:en": "Beit Safafa", "name:fr": "Beit Safafa", "name:he": "\u05d1\u05d9\u05ea \u05e6\u05e4\u05d0\u05e4\u05d0", "place": "suburb", "wikidata": "Q814904"}}, {"type": "node", "id": 390305543, "lat": 31.7782872, "lon": 35.2319526, "tags": {"alt_name:ur": "\u0627\u0646\u062f\u0631\u0648\u0646 \u0634\u06c1\u0631 (\u06cc\u0631\u0648\u0634\u0644\u0645);\u0642\u062f\u06cc\u0645 \u0634\u06c1\u0631;\u0642\u062f\u06cc\u0645 \u0634\u06c1\u0631 (\u06cc\u0631\u0648\u0634\u0644\u0645);\u0642\u062f\u06cc\u0645 \u0634\u06c1\u0631 (\u0628\u06cc\u062a \u0627\u0644\u0645\u0642\u062f\u0633);\u0627\u0646\u062f\u0631\u0648\u0646 \u0634\u06c1\u0631 (\u0628\u06cc\u062a \u0627\u0644\u0645\u0642\u062f\u0633)", "name": "\u05d4\u05e2\u05d9\u05e8 \u05d4\u05e2\u05ea\u05d9\u05e7\u05d4", "name:ar": "\u0627\u0644\u0628\u0644\u062f\u0629 \u0627\u0644\u0642\u062f\u064a\u0645\u0629", "name:cs": "Star\u00e9 M\u011bsto", "name:de": "Altstadt", "name:en": "Old City", "name:es": "Ciudad Vieja de Jerusal\u00e9n", "name:fi": "Vanhakaupunki", "name:fr": "Vieille ville de J\u00e9rusalem", "name:he": "\u05d4\u05e2\u05d9\u05e8 \u05d4\u05e2\u05ea\u05d9\u05e7\u05d4", "name:hi": "\u092a\u0941\u0930\u093e\u0928\u093e \u0936\u0939\u0930", "name:hu": "\u00d3v\u00e1ros", "name:it": "Citt\u00e0 Vecchia", "name:ja": "\u30a8\u30eb\u30b5\u30ec\u30e0\u65e7\u5e02\u8857", "name:ml": "\u0d2a\u0d41\u0d30\u0d3e\u0d24\u0d28 \u0d28\u0d17\u0d30\u0d02", "name:pl": "Stare Miasto", "name:ro": "Centrul vechi (Cetatea)", "name:ru": "\u0421\u0442\u0430\u0440\u044b\u0439 \u0413\u043e\u0440\u043e\u0434", "name:uk": "\u0421\u0442\u0430\u0440\u0438\u0439 \u0413\u043e\u0440\u043e\u0434", "name:ur": "\u0627\u0646\u062f\u0631\u0648\u0646 \u0634\u06c1\u0631", "place": "suburb", "wikidata": "Q213274", "wikipedia": "en:Old City (Jerusalem)"}}, {"type": "node", "id": 432282367, "lat": 31.821263, "lon": 35.2485718, "tags": {"alt_name:cs": "Ze'ev\u016fv Vrcholek", "description": "\u05e9\u05db\u05d5\u05e0\u05d4 \u05d1\u05e6\u05e4\u05d5\u05df \u05d9\u05e8\u05d5\u05e9\u05dc\u05d9\u05dd \u05d4\u05de\u05d7\u05d5\u05dc\u05e7\u05ea \u05dc\u05d7\u05de\u05d9\u05e9\u05d4 \u05d0\u05d6\u05d5\u05e8\u05d9\u05dd", "description:he": "\u05e9\u05db\u05d5\u05e0\u05d4 \u05d1\u05e6\u05e4\u05d5\u05df \u05d9\u05e8\u05d5\u05e9\u05dc\u05d9\u05dd \u05d4\u05de\u05d7\u05d5\u05dc\u05e7\u05ea \u05dc\u05d7\u05de\u05d9\u05e9\u05d4 \u05d0\u05d6\u05d5\u05e8\u05d9\u05dd", "image": "https://upload.wikimedia.org/wikipedia/commons/9/9d/PisgatzeevS.jpg", "name": "\u05e4\u05e1\u05d2\u05ea \u05d6\u05d0\u05d1", "name:ar": "\u0628\u0633\u062c\u0627\u062a \u0632\u0626\u064a\u0641", "name:cs": "Pisgat Ze'ev", "name:en": "Pisgat Ze'ev", "name:fr": "Pisgat Ze'ev", "name:he": "\u05e4\u05e1\u05d2\u05ea \u05d6\u05d0\u05d1", "name:ru": "\u041f\u0438\u0441\u0433\u0430\u0442-\u0417\u0435\u0435\u0432", "place": "suburb", "wikidata": "Q1028231", "wikipedia": "he:\u05e4\u05e1\u05d2\u05ea \u05d6\u05d0\u05d1", "wikipedia:en": "Pisgat Ze'ev", "wikipedia:he": "\u05e4\u05e1\u05d2\u05ea \u05d6\u05d0\u05d1"}}, {"type": "node", "id": 432295585, "lat": 31.81561, "lon": 35.1954938, "tags": {"name": "\u05e8\u05de\u05d5\u05ea", "name:ar": "\u0631\u0627\u0645\u0648\u062a", "name:en": "Ramot", "name:fr": "Ramot", "name:he": "\u05e8\u05de\u05d5\u05ea", "place": "suburb", "wikidata": "Q893215"}}, {"type": "node", "id": 520695908, "lat": 31.7257259, "lon": 35.2212813, "tags": {"alt_name:ar": "\u0647\u0627\u0631 \u062d\u0648\u0645\u0627", "alt_name:en": "Har Homa", "alt_name:fi": "Har Homa", "alt_name:he": "\u05d4\u05e8 \u05d7\u05d5\u05de\u05d4", "name": "\u05d7\u05d5\u05de\u05ea \u05e9\u05de\u05d5\u05d0\u05dc", "name:ar": "\u062d\u0648\u0645\u0627\u062a \u0634\u0645\u0648\u0626\u064a\u0644", "name:en": "Homat Shmuel", "name:fi": "Homat Shmuel", "name:fr": "Har Homa", "name:he": "\u05d7\u05d5\u05de\u05ea \u05e9\u05de\u05d5\u05d0\u05dc", "place": "suburb", "wikidata": "Q1584365"}}, {"type": "node", "id": 562664558, "lat": 31.7748, "lon": 35.2120777, "tags": {"name": "\u05e8\u05d7\u05d1\u05d9\u05d4", "name:ar": "\u0631\u062d\u0627\u0641\u064a\u0627\u200e", "name:cs": "Rechavja", "name:en": "Rehavia", "name:fr": "R\u00e9havia", "name:he": "\u05e8\u05d7\u05d1\u05d9\u05d4", "place": "suburb", "wikidata": "Q654128"}}, {"type": "node", "id": 942638670, "lat": 31.7311395, "lon": 35.1867748, "tags": {"alt_name:ar": "\u062c\u064a\u0644\u0648", "name": "\u05d2\u05d9\u05dc\u05d4", "name:ar": "\u0686\u064a\u0644\u0648", "name:en": "Gilo", "name:fi": "Gilo", "name:fr": "Gilo", "name:he": "\u05d2\u05d9\u05dc\u05d4", "place": "suburb", "wikidata": "Q1524664"}}, {"type": "node", "id": 948424035, "lat": 31.7625073, "lon": 35.1811139, "tags": {"name": "\u05e8\u05de\u05ea \u05d3\u05e0\u05d9\u05d4", "name:ar": "\u0631\u0645\u0627\u062a \u062f\u064a\u0646\u064a\u0627", "name:en": "Ramat Denya", "name:fr": "Ramat Denya", "name:he": "\u05e8\u05de\u05ea \u05d3\u05e0\u05d9\u05d4", "place": "suburb", "wikidata": "Q2778093"}}, {"type": "node", "id": 1123580870, "lat": 31.8016529, "lon": 35.2097023, "tags": {"name": "\u05d4\u05e8 \u05d7\u05d5\u05e6\u05d1\u05d9\u05dd", "name:ar": "\u0647\u0627\u0631 \u0647\u0648\u062a\u0632\u06a4\u064a\u0645", "name:en": "Har Hotzvim", "name:fr": "Har Hotzvim", "name:he": "\u05d4\u05e8 \u05d7\u05d5\u05e6\u05d1\u05d9\u05dd", "place": "suburb", "wikidata": "Q2901143"}}, {"type": "node", "id": 1523299869, "lat": 31.85492, "lon": 35.21871, "tags": {"name": "\u05d0\u05d6\u05d5\u05e8 \u05ea\u05e2\u05e9\u05d9\u05d4 \u05e2\u05d8\u05e8\u05d5\u05ea", "name:ar": "\u0627\u0644\u0645\u0646\u0637\u0642\u0629 \u0627\u0644\u0635\u0646\u0627\u0639\u064a\u0629 \u0639\u0637\u0631\u0648\u062a", "name:cs": "pr\u016fmyslov\u00e1 z\u00f3na Atarot", "name:en": "Atarot industrial zone", "name:fr": "Atarot", "name:he": "\u05d0\u05d6\u05d5\u05e8 \u05ea\u05e2\u05e9\u05d9\u05d4 \u05e2\u05d8\u05e8\u05d5\u05ea", "place": "suburb", "sorting_name:cs": "Atarot", "wikidata": "Q2921103"}}, {"type": "node", "id": 1684377382, "lat": 31.7676367, "lon": 35.1639025, "tags": {"accuracy": "minutes", "gns_ref": "-779703", "name": "\u05e2\u05d9\u05df \u05db\u05e8\u05dd", "name:ar": "\u0639\u064a\u0646 \u0643\u0627\u0631\u0645", "name:en": "Ein Kerem", "name:en1": "Ain Karim", "name:en2": "`Ayn Karim", "name:en3": "En Kerem", "name:fr": "Ein Kerem", "name:he": "\u05e2\u05d9\u05df \u05db\u05e8\u05dd", "name:it": "Ain Karem", "name:ro": "Ein Karem", "place": "suburb", "source": "GEOnet Names Server (gns)", "wikidata": "Q1022487"}}, {"type": "node", "id": 2031059157, "lat": 31.7342777, "lon": 35.2314186, "tags": {"name": "\u05d0\u05d5\u05dd \u05d8\u05d5\u05d1\u05d0", "name:ar": "\u0623\u0645 \u0637\u0648\u0628\u0627", "name:en": "Umm Tuba", "name:fr": "Umm Tuba", "name:he": "\u05d0\u05d5\u05dd \u05d8\u05d5\u05d1\u05d0", "place": "suburb", "wikidata": "Q2897524", "wikipedia": "en:Umm Tuba", "wikipedia:he": "\u05d0\u05d5\u05dd \u05d8\u05d5\u05d1\u05d0"}}, {"type": "node", "id": 2031059158, "lat": 31.7520029, "lon": 35.2457204, "tags": {"alt_name:ar": "\u0627\u0644\u0633\u0648\u0627\u062d\u0631\u0629 \u0627\u0644\u063a\u0631\u0628\u064a\u0629", "alt_name:en": "Al-Sawahra al-Gharbiyye;Jabel Mukaber;Jabel Mukhaber", "alt_name:he": "\u05d0\u05be\u05e1\u05d5\u05d5\u05d0\u05d7\u05e8\u05d4 \u05d0\u05dc\u05be\u05e2'\u05e8\u05d1\u05d9\u05d4", "is_in": "Jerusalem", "name": "\u05d2'\u05d1\u05dc \u05de\u05d5\u05db\u05d0\u05d1\u05e8", "name:ar": "\u062c\u0628\u0644 \u0645\u0643\u0628\u0631", "name:en": "Jabel Mukabar", "name:fr": "Jabel Moukaber", "name:he": "\u05d2'\u05d1\u05dc \u05de\u05d5\u05db\u05d0\u05d1\u05e8", "place": "suburb", "wikidata": "Q2902361", "wikipedia": "en:Jabel Mukaber"}}, {"type": "node", "id": 2031059159, "lat": 31.7899912, "lon": 35.2366923, "tags": {"name": "\u05d5\u05d0\u05d3\u05d9 \u05d2'\u05d5\u05d6", "name:ar": "\u0648\u0627\u062f\u064a \u0627\u0644\u062c\u0648\u0632\u200e", "name:cs": "W\u00e1d\u00ed al-D\u017e\u00faz", "name:en": "Wadi al-Joz", "name:fr": "Wadi al-Joz", "name:he": "\u05d5\u05d0\u05d3\u05d9 \u05d2'\u05d5\u05d6", "name:ru": "\u0412\u0430\u0434\u0438-\u044d\u043b\u044c-\u042f\u0443\u0437", "place": "suburb", "source": "Bing", "wikidata": "Q2918594", "wikipedia": "en:Wadi al-Joz"}}, {"type": "node", "id": 2031059160, "lat": 31.7947744, "lon": 35.2309055, "tags": {"name": "\u05e9\u05d9\u05d9\u05d7' \u05d2'\u05e8\u05d0\u05d7/\u05e9\u05de\u05e2\u05d5\u05df \u05d4\u05e6\u05d3\u05d9\u05e7", "name:ar": "\u0627\u0644\u0634\u064a\u062e \u062c\u0631\u0627\u062d", "name:cs": "\u0160ejch D\u017earach", "name:de": "Scheich Dscharrah", "name:en": "Sheikh Jarrah", "name:fr": "Sheikh Jarrah", "name:he": "\u05e9\u05d9\u05d9\u05d7' \u05d2'\u05e8\u05d0\u05d7/\u05e9\u05de\u05e2\u05d5\u05df \u05d4\u05e6\u05d3\u05d9\u05e7", "name:ml": "\u0d37\u0d46\u0d2f\u0d4d\u0d16\u0d4d \u0d1c\u0d31\u0d3e", "name:pl": "Szeik Jarrah", "name:ru": "\u0428\u0435\u0439\u0445-\u0414\u0436\u0430\u0440\u0440\u0430\u0445", "place": "suburb", "wikidata": "Q1026801", "wikipedia": "en:Sheikh Jarrah"}}, {"type": "node", "id": 2031059161, "lat": 31.7855769, "lon": 35.2308087, "tags": {"name": "\u05d1\u05d0\u05d1 \u05d0-\u05d6\u05d4\u05e8\u05d4", "name:ar": "\u0628\u0627\u0628 \u0627\u0644\u0633\u0627\u0647\u0631\u0629", "name:cs": "B\u00e1b az-Z\u00e1hra", "name:en": "Bab a-Zahara", "name:fr": "Bab a-Zahara", "name:he": "\u05d1\u05d0\u05d1 \u05d0-\u05d6\u05d4\u05e8\u05d4", "name:pl": "Bab az-Zahira", "name:ru": "\u0411\u0435\u0431-\u0430-\u0417\u0430\u0445\u0430\u0440\u0430", "place": "suburb", "wikidata": "Q2920000", "wikipedia": "en:Bab a-Zahara"}}, {"type": "node", "id": 2031059192, "lat": 31.7812795, "lon": 35.2492953, "tags": {"name": "\u05d0-\u05d8\u05d5\u05e8", "name:ar": "\u0627\u0644\u0637\u0648\u0631\u200e", "name:cs": "at-Tur", "name:en": "at-Tur", "name:fr": "At-Tur", "name:he": "\u05d0-\u05d8\u05d5\u05e8", "place": "suburb", "source": "Bing", "wikidata": "Q2916177", "wikipedia": "en:At-Tur (Mount of Olives)"}}, {"type": "node", "id": 2081525605, "lat": 31.789301, "lon": 35.2227208, "tags": {"name": "\u05d1\u05d9\u05ea \u05d9\u05e9\u05e8\u05d0\u05dc", "name:ar": "\u0628\u064a\u062a \u0627\u0633\u0631\u0627\u0626\u064a\u0644", "name:en": "Beit Yisroel", "name:en1": "Beit Yisrael", "name:fr": "Beit Yisrael", "name:he": "\u05d1\u05d9\u05ea \u05d9\u05e9\u05e8\u05d0\u05dc", "place": "suburb", "wikidata": "Q2916609"}}, {"type": "node", "id": 2081525606, "lat": 31.7496635, "lon": 35.2337721, "tags": {"alt_name": "\u05d0\u05e8\u05de\u05d5\u05df \u05d4\u05e0\u05e6\u05d9\u05d1", "alt_name:en": "Armon HaNetziv", "alt_name:ru": "\u0410\u0440\u043c\u043e\u043d \u0430-\u041d\u0430\u0446\u0438\u0432", "name": "\u05ea\u05dc\u05e4\u05d9\u05d5\u05ea \u05de\u05d6\u05e8\u05d7", "name:ar": "\u062a\u0644\u0628\u064a\u0648\u062a \u0627\u0644\u0634\u0631\u0642\u064a\u0629", "name:de": "Ost-Talpiot", "name:en": "East Talpiot", "name:fi": "It\u00e4-Talpiot", "name:fr": "Talpiot Est", "name:he": "\u05ea\u05dc\u05e4\u05d9\u05d5\u05ea \u05de\u05d6\u05e8\u05d7", "name:ru": "\u0412\u043e\u0441\u0442\u043e\u0447\u043d\u044b\u0439 \u0422\u0430\u043b\u044c\u043f\u0438\u043e\u0442", "place": "suburb", "wikidata": "Q2920377", "wikipedia": "en:East Talpiot"}}, {"type": "node", "id": 2081525607, "lat": 31.8040234, "lon": 35.2382763, "tags": {"name": "\u05d4\u05d2\u05d1\u05e2\u05d4 \u05d4\u05e6\u05e8\u05e4\u05ea\u05d9\u05ea", "name:ar": "\u062a\u0644 \u0627\u0644\u0641\u0631\u0646\u0633\u064a\u0629", "name:en": "French Hill", "name:fr": "French Hill", "name:he": "\u05d4\u05d2\u05d1\u05e2\u05d4 \u05d4\u05e6\u05e8\u05e4\u05ea\u05d9\u05ea", "place": "suburb", "wikidata": "Q1455257"}}, {"type": "node", "id": 2081525608, "lat": 31.7643906, "lon": 35.2205513, "tags": {"alt_name:cs": "ha-Mo\u0161ava ha-Germanit", "alt_name:en": "HaMoshava HaGermanit", "name": "\u05d4\u05de\u05d5\u05e9\u05d1\u05ea \u05d4\u05d2\u05e8\u05de\u05e0\u05d9\u05ea", "name:ar": "\u0627\u0644\u0645\u0633\u062a\u0639\u0645\u0631\u0629 \u0627\u0644\u0623\u0644\u0645\u0627\u0646\u064a\u0629", "name:cs": "N\u011bmeck\u00e1 Kolonie", "name:de": "Deutsche Kolonie", "name:en": "German Colony", "name:fr": "German Colony", "name:he": "\u05d4\u05de\u05d5\u05e9\u05d1\u05ea \u05d4\u05d2\u05e8\u05de\u05e0\u05d9\u05ea", "place": "suburb", "wikidata": "Q2916474"}}, {"type": "node", "id": 2081525609, "lat": 31.7883192, "lon": 35.216052, "tags": {"alt_name:ar": "\u06af\u0626\u0648\u0644\u0627;\u0686\u0626\u0648\u0644\u0627", "name": "\u05d2\u05d0\u05d5\u05dc\u05d4", "name:ar": "\u062c\u0626\u0648\u0644\u0627", "name:en": "Geula", "name:fr": "Geoulah", "name:he": "\u05d2\u05d0\u05d5\u05dc\u05d4", "name:ru": "\u0413\u0435\u0443\u043b\u0430", "place": "suburb", "wikidata": "Q2919891", "wikipedia": "en:Geula"}}, {"type": "node", "id": 2081525610, "lat": 31.7925078, "lon": 35.2187857, "tags": {"name": "\u05d4\u05d1\u05d5\u05db\u05e8\u05d9\u05dd", "name:en": "HaBukharim", "name:fr": "Quartier Bukharim", "name:he": "\u05d4\u05d1\u05d5\u05db\u05e8\u05d9\u05dd", "place": "suburb", "wikidata": "Q2037512", "wikipedia": "he:\u05e9\u05db\u05d5\u05e0\u05ea \u05d4\u05d1\u05d5\u05db\u05e8\u05d9\u05dd"}}, {"type": "node", "id": 2081525612, "lat": 31.7560437, "lon": 35.2057324, "tags": {"name": "\u05e7\u05d8\u05de\u05d5\u05e0\u05d9\u05dd (\u05d2\u05d5\u05e0\u05e0\u05d9\u05dd)", "name:ar": "\u0642\u0637\u0645\u0648\u0646\u200e", "name:en": "Katamonim", "name:fr": "Katamonim", "name:he": "\u05e7\u05d8\u05de\u05d5\u05e0\u05d9\u05dd (\u05d2\u05d5\u05e0\u05e0\u05d9\u05dd)", "place": "suburb"}}, {"type": "node", "id": 2081525614, "lat": 31.7799495, "lon": 35.2028074, "tags": {"alt_name:cs": "Vl\u00e1dn\u00ed M\u011bsto", "alt_name:en": "Government Complex", "name": "\u05e7\u05e8\u05d9\u05ea \u05d4\u05de\u05de\u05e9\u05dc\u05d4", "name:cs": "Kirjat ha-Mem\u0161ala", "name:en": "Kiryat HaMemshalah", "name:fr": "Kiryat HaMemshala", "name:he": "\u05e7\u05e8\u05d9\u05ea \u05d4\u05de\u05de\u05e9\u05dc\u05d4", "place": "suburb", "wikidata": "Q2916125"}}, {"type": "node", "id": 2081525615, "lat": 31.7688698, "lon": 35.2114263, "tags": {"name": "\u05e7\u05e8\u05d9\u05ea \u05e9\u05de\u05d5\u05d0\u05dc", "name:en": "Kiryat Shmuel", "name:fr": "Kiryat Shmuel", "name:he": "\u05e7\u05e8\u05d9\u05ea \u05e9\u05de\u05d5\u05d0\u05dc", "place": "suburb", "wikidata": "Q2899861"}}, {"type": "node", "id": 2081525616, "lat": 31.7933736, "lon": 35.2246764, "tags": {"name": "\u05de\u05e2\u05dc\u05d5\u05ea \u05d3\u05e4\u05e0\u05d4", "name:en": "Maalot Dafna", "name:fr": "Ma'alot Dafna", "name:he": "\u05de\u05e2\u05dc\u05d5\u05ea \u05d3\u05e4\u05e0\u05d4", "place": "suburb", "wikidata": "Q2900311"}}, {"type": "node", "id": 2081525617, "lat": 31.7865608, "lon": 35.2208052, "tags": {"name": "\u05de\u05d0\u05d4 \u05e9\u05e2\u05e8\u05d9\u05dd", "name:ar": "\u0645\u0626\u0629 \u0634\u0639\u0627\u0631\u064a\u0645", "name:cs": "Me'a \u0160e'arim", "name:en": "Meah Shearim", "name:fi": "Mea Shearim", "name:fr": "M\u00e9a Sh\u00e9arim", "name:he": "\u05de\u05d0\u05d4 \u05e9\u05e2\u05e8\u05d9\u05dd", "place": "suburb", "wikidata": "Q1025293"}}, {"type": "node", "id": 2081525618, "lat": 31.7555555, "lon": 35.2126203, "tags": {"name": "\u05de\u05e7\u05d5\u05e8 \u05d7\u05d9\u05d9\u05dd", "name:ar": "\u0645\u064a\u0643\u0648\u0631 \u062d\u0627\u064a\u064a\u0645", "name:en": "Mekor Haim", "name:fr": "Mekor Chaim", "name:he": "\u05de\u05e7\u05d5\u05e8 \u05d7\u05d9\u05d9\u05dd", "place": "suburb", "wikidata": "Q2904338"}}, {"type": "node", "id": 2081525619, "lat": 31.7820246, "lon": 35.2260718, "tags": {"alt_name": "\u05de\u05d5\u05e1\u05e8\u05e8\u05d4", "alt_name:en": "Musrara", "alt_name:ru": "\u041c\u0443\u0441\u0440\u0430\u0440\u0430", "image": "https://upload.wikimedia.org/wikipedia/commons/c/c0/Musrara_School.jpg", "name": "\u05de\u05d5\u05e8\u05e9\u05d4", "name:ar": "\u0645\u0635\u0631\u0627\u0631\u0629\u200e", "name:cs": "Mora\u0161a", "name:en": "Morasha", "name:fr": "Musrara", "name:he": "\u05de\u05d5\u05e8\u05e9\u05d4", "name:pl": "Morasza", "name:ru": "\u041c\u043e\u0440\u0430\u0448\u0430", "place": "suburb", "wikidata": "Q2616735", "wikipedia": "he:\u05de\u05d5\u05e1\u05e8\u05e8\u05d4", "wikipedia:he": "\u05de\u05d5\u05e1\u05e8\u05e8\u05d4"}}, {"type": "node", "id": 2081525620, "lat": 31.7831454, "lon": 35.2123968, "tags": {"name": "\u05e0\u05d7\u05dc\u05d0\u05d5\u05ea", "name:ar": "\u0646\u0627\u062d\u0644\u0627\u0626\u0648\u062a", "name:cs": "Nachla'ot", "name:en": "Nahlaot", "name:fi": "Nahlaot", "name:fr": "Nahalaot", "name:he": "\u05e0\u05d7\u05dc\u05d0\u05d5\u05ea", "place": "suburb", "wikidata": "Q2776725"}}, {"type": "node", "id": 2081525621, "lat": 31.7693712, "lon": 35.2024424, "tags": {"name": "\u05e0\u05d9\u05d5\u05ea", "name:en": "Nayot", "name:fi": "Najot", "name:fr": "Nayot", "name:he": "\u05e0\u05d9\u05d5\u05ea", "place": "suburb", "wikidata": "Q2897227"}}, {"type": "node", "id": 2081525622, "lat": 31.7660228, "lon": 35.2093317, "tags": {"name": "\u05e7\u05d8\u05de\u05d5\u05df \u05d4\u05d9\u05e9\u05e0\u05d4", "name:en": "Old Katamon", "name:en1": "Katamon", "name:fr": "Katamon", "name:he": "\u05e7\u05d8\u05de\u05d5\u05df \u05d4\u05d9\u05e9\u05e0\u05d4", "place": "suburb", "wikidata": "Q2916604"}}, {"type": "node", "id": 2081525623, "lat": 31.771929, "lon": 35.190955, "tags": {"name": "\u05e8\u05de\u05ea \u05d1\u05d9\u05ea \u05d4\u05db\u05e8\u05dd", "name:ar": "\u0628\u064a\u062a \u0647\u0627\u0643\u0631\u064a\u0645", "name:en": "Ramat Beit HaKerem", "name:fr": "Ramat Beit HaKerem", "name:he": "\u05e8\u05de\u05ea \u05d1\u05d9\u05ea \u05d4\u05db\u05e8\u05dd", "place": "suburb", "wikidata": "Q2904375"}}, {"type": "node", "id": 2081525624, "lat": 31.8111253, "lon": 35.2174861, "tags": {"alt_name:cs": "\u0160lomova V\u00fd\u0161ina", "name": "\u05e8\u05de\u05ea \u05e9\u05dc\u05de\u05d4", "name:ar": "\u0631\u0645\u0627\u062a \u0634\u0644\u0648\u0645\u0648", "name:cs": "Ramat \u0160lomo", "name:en": "Ramat Shlomo", "name:fr": "Ramat Shlomo", "name:he": "\u05e8\u05de\u05ea \u05e9\u05dc\u05de\u05d4", "place": "suburb", "wikidata": "Q951590"}}, {"type": "node", "id": 2081525625, "lat": 31.7487681, "lon": 35.1696292, "tags": {"name": "\u05d2\u05d1\u05e2\u05ea \u05de\u05e9\u05d5\u05d0\u05d4", "name:en": "Givat Massuah", "name:fr": "Givat Massuah", "name:he": "\u05d2\u05d1\u05e2\u05ea \u05de\u05e9\u05d5\u05d0\u05d4", "place": "suburb", "wikidata": "Q2905445"}}, {"type": "node", "id": 2081525626, "lat": 31.7621723, "lon": 35.2053693, "tags": {"description": "\u05d2\u05d9\u05e0\u05d4 \u05e6\u05d9\u05d1\u05d5\u05e8\u05d9\u05ea", "description:he": "\u05d2\u05d9\u05e0\u05d4 \u05e6\u05d9\u05d1\u05d5\u05e8\u05d9\u05ea", "name": "\u05e1\u05df \u05e1\u05d9\u05de\u05d5\u05df", "name:en": "San Simon", "name:fr": "San Simon", "name:he": "\u05e1\u05df \u05e1\u05d9\u05de\u05d5\u05df", "natural": "cave_entrance", "place": "suburb"}}, {"type": "node", "id": 2081525627, "lat": 31.7779514, "lon": 35.211443, "tags": {"name": "\u05e9\u05e2\u05e8\u05d9 \u05d7\u05e1\u05d3", "name:ar": "\u0634\u0639\u0627\u0631\u064a \u062d\u0633\u062f", "name:en": "Shaarei Hesed", "name:fr": "Shaarei Hesed", "name:he": "\u05e9\u05e2\u05e8\u05d9 \u05d7\u05e1\u05d3", "name:ro": "Shaarei Hesed", "place": "suburb", "wikidata": "Q2916495"}}, {"type": "node", "id": 2081525628, "lat": 31.7708162, "lon": 35.2176794, "tags": {"name": "\u05d8\u05dc\u05d1\u05d9\u05d4", "name:ar": "\u0627\u0644\u0637\u0627\u0644\u0628\u064a\u0629\u200e", "name:en": "Talbiyeh", "name:fr": "Talbiya", "name:he": "\u05d8\u05dc\u05d1\u05d9\u05d4", "place": "suburb", "wikidata": "Q2914649"}}, {"type": "node", "id": 2150752176, "lat": 31.8151731, "lon": 35.2033982, "tags": {"name": "\u05e8\u05de\u05d5\u05ea \u05d0'", "name:ar": "\u0631\u0627\u0645\u0648\u062a \u0623\u0644\u0641", "name:en": "Ramot Alef", "name:fr": "Ramot Alef", "name:he": "\u05e8\u05de\u05d5\u05ea \u05d0'", "place": "suburb"}}, {"type": "node", "id": 2150752177, "lat": 31.8103649, "lon": 35.1965819, "tags": {"name": "\u05e8\u05de\u05d5\u05ea \u05d1'", "name:ar": "\u0631\u0627\u0645\u0648\u062a \u0628", "name:en": "Ramot Bet", "name:fr": "Ramot Bet", "name:he": "\u05e8\u05de\u05d5\u05ea \u05d1'", "place": "suburb"}}, {"type": "node", "id": 2424000646, "lat": 31.8117305, "lon": 35.2471373, "tags": {"alt_name:ar": "\u0634\u0639\u0641\u0627\u0637\u200e \u0645\u062e\u064a\u0651\u0645;\u0645\u062e\u064a\u0645 \u0644\u0627\u062c\u0626\u064a\u0646 \u0634\u0639\u0641\u0627\u0637", "alt_name:en": "Shuafat refugee camp", "name": "\u05de\u05d7\u05e0\u05d4 \u05e4\u05dc\u05d9\u05d8\u05d9\u05dd \u05e9\u05d5\u05e2\u05e4\u05d8", "name:ar": "\u0645\u062e\u064a\u0645 \u0634\u0639\u0641\u0627\u0637", "name:cs": "uprchick\u00fd t\u00e1bor \u0160u'af\u00e1t", "name:en": "Shuafat refugee camp", "name:fr": "Shu'fat", "name:he": "\u05de\u05d7\u05e0\u05d4 \u05e4\u05dc\u05d9\u05d8\u05d9\u05dd \u05e9\u05d5\u05e2\u05e4\u05d8", "place": "suburb", "short_name:ar": "\u0634\u0639\u0641\u0627\u0637", "sorting_name:cs": "\u0160u'af\u00e1t", "wikidata": "Q17269988", "wikipedia": "he:\u05de\u05d7\u05e0\u05d4 \u05d4\u05e4\u05dc\u05d9\u05d8\u05d9\u05dd \u05e9\u05d5\u05e2\u05e4\u05d8"}}, {"type": "node", "id": 2598721627, "lat": 31.7716204, "lon": 35.2286571, "tags": {"ele": "765", "name": "\u05d4\u05e8 \u05e6\u05d9\u05d5\u05df", "name:ar": "\u062c\u0628\u0644 \u0635\u0647\u064a\u0648\u0646\u200e", "name:de": "Berg Zion", "name:en": "Mount Zion", "name:es": "Monte Si\u00f3n", "name:fi": "Siioninvuori", "name:fr": "Mont Sion", "name:he": "\u05d4\u05e8 \u05e6\u05d9\u05d5\u05df", "name:hi": "\u0938\u0940\u092f\u094b\u0928 \u092a\u0930\u094d\u0935\u0924", "name:hu": "Sion-hegy", "name:it": "Monte Sion", "name:ml": "\u0d38\u0d40\u0d2f\u0d4b\u0d7b \u0d2a\u0d7c\u0d35\u0d4d\u0d35\u0d24\u0d02", "name:pl": "G\u00f3ra Syjon", "name:ro": "V\u00e2rful Muntele Sion", "name:ru": "\u0433\u043e\u0440\u0430 \u0421\u0438\u043e\u043d", "natural": "peak", "wikipedia": "en:Mount Zion"}}, {"type": "node", "id": 2599430428, "lat": 31.7639414, "lon": 35.1581494, "tags": {"image": "https://upload.wikimedia.org/wikipedia/commons/2/2e/IHM_\u05db\u05e0\u05e1\u05d9\u05d9\u05ea_\u05d4\u05de\u05d5\u05e1\u05e7\u05d5\u05d1\u05d9\u05d4,_\u05db\u05e0\u05e1\u05d9\u05d9\u05d4_\u05d4\u05e8\u05d5\u05e1\u05d9\u05ea_\u05e4\u05e8\u05d1\u05d5\u05e1\u05dc\u05d0\u05d1\u05d9\u05ea,_\u05d1\u05e2\u05d9\u05df_\u05db\u05e8\u05dd.jpeg", "name": "\u05de\u05d5\u05e1\u05e7\u05d5\u05d1\u05d9\u05d4", "name:en": "Moskoviya", "name:fr": "Moskubiya", "name:he": "\u05de\u05d5\u05e1\u05e7\u05d5\u05d1\u05d9\u05d4", "name:ru": "\u041c\u043e\u0441\u043a\u043e\u0432\u0438\u044f", "place": "suburb"}}, {"type": "node", "id": 2622578194, "lat": 31.753106, "lon": 35.243917, "tags": {"name": "\u05e0\u05d5\u05e3 \u05e6\u05d9\u05d5\u05df", "name:ar": "\u0646\u0648\u0641 \u0635\u064a\u0648\u0646", "name:en": "Nof Tsion", "name:fr": "Nof Zion", "name:he": "\u05e0\u05d5\u05e3 \u05e6\u05d9\u05d5\u05df", "place": "suburb", "wikidata": "Q7047394"}}, {"type": "node", "id": 2710941646, "lat": 31.794767, "lon": 35.2425346, "tags": {"alt_name:ar": "\u062c\u0628\u0644 \u0627\u0644\u0645\u0634\u0647\u062f;\u062c\u0628\u0644 \u0627\u0644\u0635\u0648\u0627\u0646\u0629", "alt_name:cs": "Hora Pozorovatel\u016f", "name": "\u05d4\u05e8 \u05d4\u05e6\u05d5\u05e4\u05d9\u05dd", "name:ar": "\u062c\u0628\u0644 \u0627\u0644\u0645\u0634\u0627\u0631\u0641", "name:cs": "Hora Skopus", "name:de": "Skopusberg", "name:en": "Mount Scopus", "name:fr": "Mont Scopus", "name:he": "\u05d4\u05e8 \u05d4\u05e6\u05d5\u05e4\u05d9\u05dd", "place": "suburb"}}, {"type": "node", "id": 2849685175, "lat": 31.8042873, "lon": 35.2419332, "tags": {"alt_name:cs": "Vrchol Hlavn\u00edho M\u011bsta", "name": "\u05e6\u05de\u05e8\u05ea \u05d4\u05d1\u05d9\u05e8\u05d4", "name:cs": "Cameret ha-Bira", "name:en": "Zameret HaBira", "name:fr": "Cameret ha-Bira", "name:he": "\u05e6\u05de\u05e8\u05ea \u05d4\u05d1\u05d9\u05e8\u05d4", "place": "suburb", "wikidata": "Q7220886"}}, {"type": "node", "id": 2849685176, "lat": 31.8039322, "lon": 35.2310504, "tags": {"name": "\u05d2\u05d1\u05e2\u05ea \u05d4\u05de\u05d1\u05ea\u05e8", "name:cs": "Giv'at ha-Mivtar", "name:en": "Givat HaMivtar", "name:fr": "Givat HaMivtar", "name:he": "\u05d2\u05d1\u05e2\u05ea \u05d4\u05de\u05d1\u05ea\u05e8", "place": "suburb", "wikidata": "Q2919853"}}, {"type": "node", "id": 3758652381, "lat": 31.7721407, "lon": 35.2249574, "tags": {"name": "\u05d9\u05de\u05d9\u05df \u05de\u05e9\u05d4", "name:ar": "\u064a\u0645\u064a\u0646 \u0645\u0648\u0634\u064a\u0647", "name:cs": "Jemin Mo\u0161e", "name:de": "Jemin Mosche", "name:en": "Yemin Moshe", "name:fr": "Yemin Mosh\u00e9", "name:he": "\u05d9\u05de\u05d9\u05df \u05de\u05e9\u05d4", "name:ml": "\u0d2f\u0d2e\u0d40\u0d7b \u0d2e\u0d4b\u0d37\u0d46", "name:ro": "Yemin Moshe", "name:ru": "\u0419\u0435\u043c\u0438\u043d-\u041c\u043e\u0448\u0435", "place": "suburb"}}, {"type": "node", "id": 3759813457, "lat": 31.772831, "lon": 35.2267981}, {"type": "node", "id": 3759813459, "lat": 31.771897, "lon": 35.2305933}, {"type": "node", "id": 3759813460, "lat": 31.7718797, "lon": 35.2312328}, {"type": "node", "id": 3759813461, "lat": 31.7708571, "lon": 35.2316946}, {"type": "node", "id": 3759813462, "lat": 31.7686812, "lon": 35.2312358}, {"type": "node", "id": 3759813463, "lat": 31.7686356, "lon": 35.2295192}, {"type": "node", "id": 3759813464, "lat": 31.7689138, "lon": 35.228382}, {"type": "node", "id": 3759813465, "lat": 31.7701543, "lon": 35.2270569}, {"type": "node", "id": 3759813466, "lat": 31.7713274, "lon": 35.2266277}, {"type": "node", "id": 3759813467, "lat": 31.7716503, "lon": 35.2268594}, {"type": "node", "id": 3761397457, "lat": 31.7739508, "lon": 35.2240184}, {"type": "node", "id": 3761397458, "lat": 31.7740303, "lon": 35.2240712}, {"type": "node", "id": 3761397459, "lat": 31.7740821, "lon": 35.2241282}, {"type": "node", "id": 3761397460, "lat": 31.7741409, "lon": 35.2242339}, {"type": "node", "id": 3761397461, "lat": 31.7741616, "lon": 35.2243233}, {"type": "node", "id": 3761397462, "lat": 31.774172, "lon": 35.2244127}, {"type": "node", "id": 3761397463, "lat": 31.7741755, "lon": 35.2244981}, {"type": "node", "id": 3761397464, "lat": 31.7741685, "lon": 35.2246201}, {"type": "node", "id": 3761397465, "lat": 31.7743432, "lon": 35.2247322}, {"type": "node", "id": 3761397467, "lat": 31.7747675, "lon": 35.2248231}, {"type": "node", "id": 3761397468, "lat": 31.7749372, "lon": 35.2248163}, {"type": "node", "id": 3761397469, "lat": 31.7749958, "lon": 35.2250917}, {"type": "node", "id": 3761397470, "lat": 31.7751275, "lon": 35.2252397}, {"type": "node", "id": 3761397471, "lat": 31.7752738, "lon": 35.2253705}, {"type": "node", "id": 3761397472, "lat": 31.7753528, "lon": 35.2255357}, {"type": "node", "id": 3761397473, "lat": 31.7753704, "lon": 35.2256734}, {"type": "node", "id": 3761397474, "lat": 31.7750595, "lon": 35.2258718}, {"type": "node", "id": 3761397475, "lat": 31.7748335, "lon": 35.2259958}, {"type": "node", "id": 3761397476, "lat": 31.7747572, "lon": 35.2267784}, {"type": "node", "id": 3761397477, "lat": 31.7746978, "lon": 35.2277723}, {"type": "node", "id": 3761397478, "lat": 31.7745887, "lon": 35.2277723}, {"type": "node", "id": 3761397479, "lat": 31.774564, "lon": 35.2276878}, {"type": "node", "id": 3761397480, "lat": 31.7744004, "lon": 35.227679}, {"type": "node", "id": 3761397481, "lat": 31.7743697, "lon": 35.2277485}, {"type": "node", "id": 3761397482, "lat": 31.7737388, "lon": 35.2277578}, {"type": "node", "id": 3761397483, "lat": 31.7733362, "lon": 35.2277645}, {"type": "node", "id": 3761397484, "lat": 31.7728939, "lon": 35.2277893}, {"type": "node", "id": 3761397485, "lat": 31.7728963, "lon": 35.2275389}, {"type": "node", "id": 3761397486, "lat": 31.7729087, "lon": 35.2267986}, {"type": "node", "id": 3761397487, "lat": 31.7724347, "lon": 35.2268304}, {"type": "node", "id": 3761397488, "lat": 31.7715002, "lon": 35.2267948}, {"type": "node", "id": 3761397489, "lat": 31.7712994, "lon": 35.2266883}, {"type": "node", "id": 3761397490, "lat": 31.7713101, "lon": 35.2262201}, {"type": "node", "id": 3761397491, "lat": 31.7712568, "lon": 35.2258941}, {"type": "node", "id": 3761397492, "lat": 31.7710908, "lon": 35.2256438}, {"type": "node", "id": 3761397493, "lat": 31.7704714, "lon": 35.2255016}, {"type": "node", "id": 3761397494, "lat": 31.7703953, "lon": 35.224789}, {"type": "node", "id": 3761397495, "lat": 31.7703075, "lon": 35.2246616}, {"type": "node", "id": 3761397496, "lat": 31.7703631, "lon": 35.2244826}, {"type": "node", "id": 3761397497, "lat": 31.7707436, "lon": 35.224283}, {"type": "node", "id": 3761397498, "lat": 31.771598, "lon": 35.2238916}, {"type": "node", "id": 3761397499, "lat": 31.7726662, "lon": 35.2241154}, {"type": "node", "id": 3761397500, "lat": 31.77374, "lon": 35.2239859}, {"type": "node", "id": 3791268444, "lat": 31.7701969, "lon": 35.2439153, "tags": {"alt_name:ar": "\u062d\u064a \u0631\u0623\u0633 \u0627\u0644\u0639\u0645\u0648\u062f;\u0631\u0627\u0633 \u0627\u0644\u0639\u0627\u0645\u0648\u062f;\u062d\u064a \u0631\u0627\u0633 \u0627\u0644\u0639\u0627\u0645\u0648\u062f", "name": "\u05e8\u05d0\u05e1 \u05d0\u05dc-\u05e2\u05de\u05d5\u05d3", "name:ar": "\u0631\u0623\u0633 \u0627\u0644\u0639\u0645\u0648\u062f", "name:cs": "Ras al-Am\u00fad", "name:en": "Ras al-Amud", "name:fr": "Ras al-Amoud", "name:he": "\u05e8\u05d0\u05e1 \u05d0\u05dc-\u05e2\u05de\u05d5\u05d3", "name:ro": "Zona Ras al-Amud", "place": "suburb", "wikidata": "Q2919246", "wikipedia": "ar:\u0631\u0627\u0633 \u0627\u0644\u0639\u0627\u0645\u0648\u062f"}}, {"type": "node", "id": 4880194298, "lat": 31.7727436, "lon": 35.2305169}, {"type": "node", "id": 8239864766, "lat": 31.7480437, "lon": 35.2457278, "tags": {"alt_name:en": "Al-Sawahra al-Gharbiyye;Jabel Mukaber;Jabel Mukhaber", "name": "\u05d0\u05be\u05e1\u05d5\u05d5\u05d0\u05d7\u05e8\u05d4 \u05d0\u05dc\u05be\u05e2'\u05e8\u05d1\u05d9\u05d4", "name:ar": "\u0627\u0644\u0633\u0648\u0627\u062d\u0631\u0629 \u0627\u0644\u063a\u0631\u0628\u064a\u0629", "name:en": "Al-Sawahra al-Gharbiyye", "name:fr": "A-Sawahra al-Arabiya", "name:he": "\u05d0\u05be\u05e1\u05d5\u05d5\u05d0\u05d7\u05e8\u05d4 \u05d0\u05dc\u05be\u05e2'\u05e8\u05d1\u05d9\u05d4", "place": "suburb"}}, {"type": "node", "id": 8241792516, "lat": 31.7408073, "lon": 35.193208, "tags": {"name": "\u05e9\u05e8\u05e4\u05d0\u05ea", "name:ar": "\u0634\u0631\u0641\u0627\u062a", "name:en": "Sharafat", "name:fr": "Sharafat", "name:he": "\u05e9\u05e8\u05e4\u05d0\u05ea", "place": "suburb", "population": "2800", "wikidata": "Q6806145", "wikipedia": "en:Sharafat, East Jerusalem"}}, {"type": "node", "id": 8316380890, "lat": 31.7889891, "lon": 35.2113527, "tags": {"name": "\u05de\u05e7\u05d5\u05e8 \u05d1\u05e8\u05d5\u05da", "name:fr": "Mekor Baruch", "name:he": "\u05de\u05e7\u05d5\u05e8 \u05d1\u05e8\u05d5\u05da", "place": "suburb", "wikidata": "Q2919764", "wikipedia": "he:\u05de\u05e7\u05d5\u05e8 \u05d1\u05e8\u05d5\u05da"}}, {"type": "node", "id": 9107808023, "lat": 31.7492021, "lon": 35.2213986, "tags": {"name": "\u05d0\u05e8\u05e0\u05d5\u05e0\u05d4", "name:en": "Arnona", "place": "suburb", "wikidata": "Q2918536", "wikipedia": "he:\u05d0\u05e8\u05e0\u05d5\u05e0\u05d4 (\u05e9\u05db\u05d5\u05e0\u05d4)"}}, {"type": "node", "id": 9107818768, "lat": 31.7807932, "lon": 35.2204395, "tags": {"name": "\u05e0\u05d7\u05dc\u05ea \u05e9\u05d1\u05e2\u05d4", "name:en": "Nahalat Shiva", "place": "suburb", "wikidata": "Q2918285", "wikipedia": "he:\u05e0\u05d7\u05dc\u05ea \u05e9\u05d1\u05e2\u05d4"}}, {"type": "node", "id": 9493856826, "lat": 31.7651593, "lon": 35.2278129, "tags": {"name": "\u05d2\u05d1\u05e2\u05ea \u05d7\u05e0\u05e0\u05d9\u05d4", "name:en": "Giv'at Hanania", "place": "suburb"}}, {"type": "node", "id": 10103368277, "lat": 31.7653138, "lon": 35.150195, "tags": {"name": "\u05d1\u05d9\u05ea \u05d7\u05d5\u05dc\u05d9\u05dd \u05d4\u05d3\u05e1\u05d4 \u05e2\u05d9\u05df \u05db\u05e8\u05dd", "name:en": "Hadassah Ein Kerem", "place": "suburb"}}, {"type": "way", "id": 372422144, "nodes": [3759813459, 3759813460, 3759813461, 3759813462, 3759813463, 3759813464, 3759813465, 3759813466, 3759813467, 3759813457, 4880194298, 3759813459], "tags": {"name": "\u05d4\u05e8 \u05e6\u05d9\u05d5\u05df", "name:ceb": "Mont Sion", "name:cs": "Sij\u00f3n", "name:de": "Zionsberg", "name:en": "Mount Zion", "name:fr": "Mont Sion", "name:he": "\u05d4\u05e8 \u05e6\u05d9\u05d5\u05df", "name:hu": "Sion-hegy", "name:ml": "\u0d38\u0d40\u0d2f\u0d4b\u0d7b \u0d2a\u0d7c\u0d35\u0d4d\u0d35\u0d24\u0d02", "name:ro": "Muntele Sion", "place": "suburb", "wikidata": "Q332444", "wikipedia": "he:\u05d4\u05e8 \u05e6\u05d9\u05d5\u05df"}}, {"type": "way", "id": 372580960, "nodes": [3761397457, 3761397458, 3761397459, 3761397460, 3761397461, 3761397462, 3761397463, 3761397464, 3761397465, 3761397467, 3761397468, 3761397469, 3761397470, 3761397471, 3761397472, 3761397473, 3761397474, 3761397475, 3761397476, 3761397477, 3761397478, 3761397479, 3761397480, 3761397481, 3761397482, 3761397483, 3761397484, 3761397485, 3761397486, 3761397487, 3761397488, 3761397489, 3761397490, 3761397491, 3761397492, 3761397493, 3761397494, 3761397495, 3761397496, 3761397497, 3761397498, 3761397499, 3761397500, 3761397457], "tags": {"name": "\u05d9\u05de\u05d9\u05df \u05de\u05e9\u05d4", "name:ceb": "Yemin Mosh\u00e9", "name:cs": "Jemin Mo\u0161e", "name:en": "Yemin Moshe", "name:fr": "Yemin Mosh\u00e9", "name:he": "\u05d9\u05de\u05d9\u05df \u05de\u05e9\u05d4", "name:ro": "Yemin Moshe", "place": "suburb", "wikidata": "Q2915461", "wikipedia": "en:Yemin Moshe"}}, {"type": "relation", "id": 5537772, "members": [{"type": "way", "ref": 372422144, "role": "outer"}, {"type": "node", "ref": 2598721627, "role": ""}], "tags": {"name": "\u05d4\u05e8 \u05e6\u05d9\u05d5\u05df", "name:cs": "Sij\u00f3n", "name:de": "Zionsberg", "name:en": "Mount Zion", "name:fr": "Mont Sion", "name:he": "\u05d4\u05e8 \u05e6\u05d9\u05d5\u05df", "name:ro": "Muntele Sion", "place": "suburb", "type": "multipolygon", "wikidata": "Q332444", "wikipedia": "he:\u05d4\u05e8 \u05e6\u05d9\u05d5\u05df"}}]}